{
"type": "FeatureCollection",
"name": "Optimized_Phase6_Network",
"crs": { "type": "name", "properties": { "name": "urn:ogc:def:crs:OGC:1.3:CRS84" } },
"features": [
{ "type": "Feature", "properties": { "STATEFP": "33", "COUNTYFP": "011", "TRACTCE": "001100", "AFFGEOID": "1400000US33011001100", "GEOID": "33011001100", "NAME": "11", "NAMELSAD": "Census Tract 11", "STUSPS": "NH", "NAMELSADCO": "Hillsborough County", "STATE_NAME": "New Hampshire", "LSAD": "CT", "ALAND": 4964495, "AWATER": 58284, "population": 5826, "median_income": 104315.0, "commuters_total": 3240, "commuters_public_transport": "0", "households_total": "1984", "households_no_vehicle": "6", "state": "33", "county": "011", "tract": "001100", "state_abbr": "NH", "EV Level2 EVSE Num": 0.0, "EV DC Fast Count": 0.0, "charger_count": 0.0, "dist_meters": 503.45473500376568, "dist_to_hwy_miles": 0.31283304646859317, "pop_density": 1161.56994483568, "is_candidate": true, "chargers_assigned": 1 }, "geometry": { "type": "Point", "coordinates": [ -71.422455664539697, 42.981586868347335 ] } },
{ "type": "Feature", "properties": { "STATEFP": "25", "COUNTYFP": "017", "TRACTCE": "350500", "AFFGEOID": "1400000US25017350500", "GEOID": "25017350500", "NAME": "3505", "NAMELSAD": "Census Tract 3505", "STUSPS": "MA", "NAMELSADCO": "Middlesex County", "STATE_NAME": "Massachusetts", "LSAD": "CT", "ALAND": 225003, "AWATER": 0, "population": 1666, "median_income": 145368.0, "commuters_total": 1191, "commuters_public_transport": "427", "households_total": "797", "households_no_vehicle": "21", "state": "25", "county": "017", "tract": "350500", "state_abbr": "MA", "EV Level2 EVSE Num": 0.0, "EV DC Fast Count": 0.0, "charger_count": 0.0, "dist_meters": 1104.3201528212903, "dist_to_hwy_miles": 0.68619443549609804, "pop_density": 7421.3984011713792, "is_candidate": true, "chargers_assigned": 1 }, "geometry": { "type": "Point", "coordinates": [ -71.122514177274255, 42.400011363002022 ] } },
{ "type": "Feature", "properties": { "STATEFP": "25", "COUNTYFP": "025", "TRACTCE": "100400", "AFFGEOID": "1400000US25025100400", "GEOID": "25025100400", "NAME": "1004", "NAMELSAD": "Census Tract 1004", "STUSPS": "MA", "NAMELSADCO": "Suffolk County", "STATE_NAME": "Massachusetts", "LSAD": "CT", "ALAND": 626250, "AWATER": 0, "population": 5228, "median_income": 103651.0, "commuters_total": 2497, "commuters_public_transport": "552", "households_total": "1879", "households_no_vehicle": "69", "state": "25", "county": "025", "tract": "100400", "state_abbr": "MA", "EV Level2 EVSE Num": 0.0, "EV DC Fast Count": 0.0, "charger_count": 0.0, "dist_meters": 346.90805690634187, "dist_to_hwy_miles": 0.21555920868576056, "pop_density": 8380.287288322681, "is_candidate": true, "chargers_assigned": 1 }, "geometry": { "type": "Point", "coordinates": [ -71.070808643898687, 42.281793944234764 ] } },
{ "type": "Feature", "properties": { "STATEFP": "25", "COUNTYFP": "027", "TRACTCE": "731400", "AFFGEOID": "1400000US25027731400", "GEOID": "25027731400", "NAME": "7314", "NAMELSAD": "Census Tract 7314", "STUSPS": "MA", "NAMELSADCO": "Worcester County", "STATE_NAME": "Massachusetts", "LSAD": "CT", "ALAND": 729166, "AWATER": 0, "population": 4682, "median_income": 30965.0, "commuters_total": 1803, "commuters_public_transport": "70", "households_total": "1870", "households_no_vehicle": "16", "state": "25", "county": "027", "tract": "731400", "state_abbr": "MA", "EV Level2 EVSE Num": 0.0, "EV DC Fast Count": 0.0, "charger_count": 0.0, "dist_meters": 464.12030372449459, "dist_to_hwy_miles": 0.28839170326002872, "pop_density": 6401.4354832565259, "is_candidate": true, "chargers_assigned": 1 }, "geometry": { "type": "Point", "coordinates": [ -71.816224053782975, 42.258459704348411 ] } },
{ "type": "Feature", "properties": { "STATEFP": "25", "COUNTYFP": "009", "TRACTCE": "208302", "AFFGEOID": "1400000US25009208302", "GEOID": "25009208302", "NAME": "2083.02", "NAMELSAD": "Census Tract 2083.02", "STUSPS": "MA", "NAMELSADCO": "Essex County", "STATE_NAME": "Massachusetts", "LSAD": "CT", "ALAND": 4199517, "AWATER": 722531, "population": 5283, "median_income": 100476.0, "commuters_total": 2708, "commuters_public_transport": "37", "households_total": "1770", "households_no_vehicle": "36", "state": "25", "county": "009", "tract": "208302", "state_abbr": "MA", "EV Level2 EVSE Num": 0.0, "EV DC Fast Count": 0.0, "charger_count": 0.0, "dist_meters": 1236.0586262219042, "dist_to_hwy_miles": 0.76805313123510521, "pop_density": 1075.4754049808789, "is_candidate": true, "chargers_assigned": 1 }, "geometry": { "type": "Point", "coordinates": [ -71.004200279236287, 42.480670039621138 ] } },
{ "type": "Feature", "properties": { "STATEFP": "44", "COUNTYFP": "007", "TRACTCE": "002300", "AFFGEOID": "1400000US44007002300", "GEOID": "44007002300", "NAME": "23", "NAMELSAD": "Census Tract 23", "STUSPS": "RI", "NAMELSADCO": "Providence County", "STATE_NAME": "Rhode Island", "LSAD": "CT", "ALAND": 1182264, "AWATER": 664, "population": 4950, "median_income": 84961.0, "commuters_total": 2856, "commuters_public_transport": "72", "households_total": "1852", "households_no_vehicle": "29", "state": "44", "county": "007", "tract": "002300", "state_abbr": "RI", "EV Level2 EVSE Num": 0.0, "EV DC Fast Count": 0.0, "charger_count": 0.0, "dist_meters": 1354.381028451106, "dist_to_hwy_miles": 0.8415754461152436, "pop_density": 4177.1930593546595, "is_candidate": true, "chargers_assigned": 1 }, "geometry": { "type": "Point", "coordinates": [ -71.437667478004471, 41.837516783178906 ] } },
{ "type": "Feature", "properties": { "STATEFP": "09", "COUNTYFP": "110", "TRACTCE": "501700", "AFFGEOID": "1400000US09110501700", "GEOID": "09110501700", "NAME": "5017", "NAMELSAD": "Census Tract 5017", "STUSPS": "CT", "NAMELSADCO": "Capitol Planning Region", "STATE_NAME": "Connecticut", "LSAD": "CT", "ALAND": 297599, "AWATER": 0, "population": 1657, "median_income": 34172.0, "commuters_total": 653, "commuters_public_transport": "215", "households_total": "646", "households_no_vehicle": "0", "state": "09", "county": "110", "tract": "501700", "state_abbr": "CT", "EV Level2 EVSE Num": 0.0, "EV DC Fast Count": 0.0, "charger_count": 0.0, "dist_meters": 173.20978318256093, "dist_to_hwy_miles": 0.10762783699066757, "pop_density": 5589.6523679710617, "is_candidate": true, "chargers_assigned": 1 }, "geometry": { "type": "Point", "coordinates": [ -72.682383024691106, 41.775209772357528 ] } },
{ "type": "Feature", "properties": { "STATEFP": "09", "COUNTYFP": "120", "TRACTCE": "073000", "AFFGEOID": "1400000US09120073000", "GEOID": "09120073000", "NAME": "730", "NAMELSAD": "Census Tract 730", "STUSPS": "CT", "NAMELSADCO": "Greater Bridgeport Planning Region", "STATE_NAME": "Connecticut", "LSAD": "CT", "ALAND": 1201081, "AWATER": 0, "population": 2316, "median_income": 107188.0, "commuters_total": 887, "commuters_public_transport": "72", "households_total": "670", "households_no_vehicle": "5", "state": "09", "county": "120", "tract": "073000", "state_abbr": "CT", "EV Level2 EVSE Num": 0.0, "EV DC Fast Count": 0.0, "charger_count": 0.0, "dist_meters": 359.52401445160439, "dist_to_hwy_miles": 0.2233984207511181, "pop_density": 1948.1252258762338, "is_candidate": true, "chargers_assigned": 1 }, "geometry": { "type": "Point", "coordinates": [ -73.177824273774917, 41.215010353769543 ] } },
{ "type": "Feature", "properties": { "STATEFP": "36", "COUNTYFP": "081", "TRACTCE": "014500", "AFFGEOID": "1400000US36081014500", "GEOID": "36081014500", "NAME": "145", "NAMELSAD": "Census Tract 145", "STUSPS": "NY", "NAMELSADCO": "Queens County", "STATE_NAME": "New York", "LSAD": "CT", "ALAND": 127743, "AWATER": 0, "population": 2350, "median_income": 78750.0, "commuters_total": 1382, "commuters_public_transport": "876", "households_total": "996", "households_no_vehicle": "47", "state": "36", "county": "081", "tract": "014500", "state_abbr": "NY", "EV Level2 EVSE Num": 0.0, "EV DC Fast Count": 0.0, "charger_count": 0.0, "dist_meters": 357.63779827321423, "dist_to_hwy_miles": 0.22222637744243867, "pop_density": 18399.803490993767, "is_candidate": true, "chargers_assigned": 1 }, "geometry": { "type": "Point", "coordinates": [ -73.907505912244673, 40.764280871813213 ] } },
{ "type": "Feature", "properties": { "STATEFP": "36", "COUNTYFP": "081", "TRACTCE": "045400", "AFFGEOID": "1400000US36081045400", "GEOID": "36081045400", "NAME": "454", "NAMELSAD": "Census Tract 454", "STUSPS": "NY", "NAMELSADCO": "Queens County", "STATE_NAME": "New York", "LSAD": "CT", "ALAND": 230996, "AWATER": 0, "population": 4793, "median_income": 65610.0, "commuters_total": 2111, "commuters_public_transport": "795", "households_total": "1696", "households_no_vehicle": "306", "state": "36", "county": "081", "tract": "045400", "state_abbr": "NY", "EV Level2 EVSE Num": 0.0, "EV DC Fast Count": 0.0, "charger_count": 0.0, "dist_meters": 547.98918726618342, "dist_to_hwy_miles": 0.34050554094609187, "pop_density": 20974.499937479814, "is_candidate": true, "chargers_assigned": 1 }, "geometry": { "type": "Point", "coordinates": [ -73.796028669548136, 40.712633332479435 ] } },
{ "type": "Feature", "properties": { "STATEFP": "36", "COUNTYFP": "005", "TRACTCE": "034800", "AFFGEOID": "1400000US36005034800", "GEOID": "36005034800", "NAME": "348", "NAMELSAD": "Census Tract 348", "STUSPS": "NY", "NAMELSADCO": "Bronx County", "STATE_NAME": "New York", "LSAD": "CT", "ALAND": 437468, "AWATER": 0, "population": 6177, "median_income": 47593.0, "commuters_total": 2263, "commuters_public_transport": "992", "households_total": "2076", "households_no_vehicle": "106", "state": "36", "county": "005", "tract": "034800", "state_abbr": "NY", "EV Level2 EVSE Num": 0.0, "EV DC Fast Count": 0.0, "charger_count": 0.0, "dist_meters": 1590.0492593836991, "dist_to_hwy_miles": 0.98801325971124754, "pop_density": 14130.358017703511, "is_candidate": true, "chargers_assigned": 1 }, "geometry": { "type": "Point", "coordinates": [ -73.853071180631588, 40.869447988181705 ] } },
{ "type": "Feature", "properties": { "STATEFP": "36", "COUNTYFP": "047", "TRACTCE": "051800", "AFFGEOID": "1400000US36047051800", "GEOID": "36047051800", "NAME": "518", "NAMELSAD": "Census Tract 518", "STUSPS": "NY", "NAMELSADCO": "Kings County", "STATE_NAME": "New York", "LSAD": "CT", "ALAND": 201332, "AWATER": 0, "population": 3368, "median_income": 92098.0, "commuters_total": 2010, "commuters_public_transport": "1475", "households_total": "1563", "households_no_vehicle": "168", "state": "36", "county": "047", "tract": "051800", "state_abbr": "NY", "EV Level2 EVSE Num": 0.0, "EV DC Fast Count": 0.0, "charger_count": 0.0, "dist_meters": 1376.2597041871359, "dist_to_hwy_miles": 0.85517025873161412, "pop_density": 16741.434560669644, "is_candidate": true, "chargers_assigned": 1 }, "geometry": { "type": "Point", "coordinates": [ -73.960793512199686, 40.637991671666775 ] } },
{ "type": "Feature", "properties": { "STATEFP": "36", "COUNTYFP": "085", "TRACTCE": "020702", "AFFGEOID": "1400000US36085020702", "GEOID": "36085020702", "NAME": "207.02", "NAMELSAD": "Census Tract 207.02", "STUSPS": "NY", "NAMELSADCO": "Richmond County", "STATE_NAME": "New York", "LSAD": "CT", "ALAND": 542033, "AWATER": 289198, "population": 2470, "median_income": 32070.0, "commuters_total": 858, "commuters_public_transport": "232", "households_total": "881", "households_no_vehicle": "23", "state": "36", "county": "085", "tract": "020702", "state_abbr": "NY", "EV Level2 EVSE Num": 0.0, "EV DC Fast Count": 0.0, "charger_count": 0.0, "dist_meters": 1177.4709026041921, "dist_to_hwy_miles": 0.73164831707668498, "pop_density": 4664.5706398483717, "is_candidate": true, "chargers_assigned": 1 }, "geometry": { "type": "Point", "coordinates": [ -74.131651942829464, 40.637811324078839 ] } },
{ "type": "Feature", "properties": { "STATEFP": "34", "COUNTYFP": "029", "TRACTCE": "713401", "AFFGEOID": "1400000US34029713401", "GEOID": "34029713401", "NAME": "7134.01", "NAMELSAD": "Census Tract 7134.01", "STUSPS": "NJ", "NAMELSADCO": "Ocean County", "STATE_NAME": "New Jersey", "LSAD": "CT", "ALAND": 3513233, "AWATER": 0, "population": 5194, "median_income": 98750.0, "commuters_total": 2527, "commuters_public_transport": "68", "households_total": "1831", "households_no_vehicle": "8", "state": "34", "county": "029", "tract": "713401", "state_abbr": "NJ", "EV Level2 EVSE Num": 0.0, "EV DC Fast Count": 0.0, "charger_count": 0.0, "dist_meters": 404.27623572990268, "dist_to_hwy_miles": 0.25120623095797201, "pop_density": 1459.7306362315724, "is_candidate": true, "chargers_assigned": 1 }, "geometry": { "type": "Point", "coordinates": [ -74.141969473504176, 40.089346483921126 ] } },
{ "type": "Feature", "properties": { "STATEFP": "34", "COUNTYFP": "017", "TRACTCE": "017600", "AFFGEOID": "1400000US34017017600", "GEOID": "34017017600", "NAME": "176", "NAMELSAD": "Census Tract 176", "STUSPS": "NJ", "NAMELSADCO": "Hudson County", "STATE_NAME": "New Jersey", "LSAD": "CT", "ALAND": 130226, "AWATER": 0, "population": 3081, "median_income": 48452.0, "commuters_total": 1607, "commuters_public_transport": "428", "households_total": "1180", "households_no_vehicle": "50", "state": "34", "county": "017", "tract": "017600", "state_abbr": "NJ", "EV Level2 EVSE Num": 0.0, "EV DC Fast Count": 0.0, "charger_count": 0.0, "dist_meters": 737.16069048933934, "dist_to_hwy_miles": 0.45805155560002198, "pop_density": 23797.228452723142, "is_candidate": true, "chargers_assigned": 1 }, "geometry": { "type": "Point", "coordinates": [ -74.041063743212348, 40.760038134332859 ] } },
{ "type": "Feature", "properties": { "STATEFP": "34", "COUNTYFP": "031", "TRACTCE": "182800", "AFFGEOID": "1400000US34031182800", "GEOID": "34031182800", "NAME": "1828", "NAMELSAD": "Census Tract 1828", "STUSPS": "NJ", "NAMELSADCO": "Passaic County", "STATE_NAME": "New Jersey", "LSAD": "CT", "ALAND": 615613, "AWATER": 0, "population": 3877, "median_income": 15563.0, "commuters_total": 1043, "commuters_public_transport": "0", "households_total": "1681", "households_no_vehicle": "0", "state": "34", "county": "031", "tract": "182800", "state_abbr": "NJ", "EV Level2 EVSE Num": 0.0, "EV DC Fast Count": 0.0, "charger_count": 0.0, "dist_meters": 1.5207254835005233, "dist_to_hwy_miles": 0.00094493735537582075, "pop_density": 6304.2415499693416, "is_candidate": true, "chargers_assigned": 1 }, "geometry": { "type": "Point", "coordinates": [ -74.161300031356802, 40.905807803986711 ] } },
{ "type": "Feature", "properties": { "STATEFP": "34", "COUNTYFP": "007", "TRACTCE": "607900", "AFFGEOID": "1400000US34007607900", "GEOID": "34007607900", "NAME": "6079", "NAMELSAD": "Census Tract 6079", "STUSPS": "NJ", "NAMELSADCO": "Camden County", "STATE_NAME": "New Jersey", "LSAD": "CT", "ALAND": 1169240, "AWATER": 24856, "population": 2004, "median_income": 113500.0, "commuters_total": 1050, "commuters_public_transport": "49", "households_total": "680", "households_no_vehicle": "11", "state": "34", "county": "007", "tract": "607900", "state_abbr": "NJ", "EV Level2 EVSE Num": 0.0, "EV DC Fast Count": 0.0, "charger_count": 0.0, "dist_meters": 751.04114108786212, "dist_to_hwy_miles": 0.46667648917435856, "pop_density": 1661.4306274513999, "is_candidate": true, "chargers_assigned": 1 }, "geometry": { "type": "Point", "coordinates": [ -75.005266737422119, 39.82130359416 ] } },
{ "type": "Feature", "properties": { "STATEFP": "34", "COUNTYFP": "023", "TRACTCE": "007000", "AFFGEOID": "1400000US34023007000", "GEOID": "34023007000", "NAME": "70", "NAMELSAD": "Census Tract 70", "STUSPS": "NJ", "NAMELSADCO": "Middlesex County", "STATE_NAME": "New Jersey", "LSAD": "CT", "ALAND": 3746778, "AWATER": 178290, "population": 7818, "median_income": 89615.0, "commuters_total": 3659, "commuters_public_transport": "133", "households_total": "2722", "households_no_vehicle": "0", "state": "34", "county": "023", "tract": "007000", "state_abbr": "NJ", "EV Level2 EVSE Num": 0.0, "EV DC Fast Count": 0.0, "charger_count": 0.0, "dist_meters": 1421.257555592324, "dist_to_hwy_miles": 0.88313069680261724, "pop_density": 1987.3561525028567, "is_candidate": true, "chargers_assigned": 1 }, "geometry": { "type": "Point", "coordinates": [ -74.371498658045311, 40.438263794611132 ] } },
{ "type": "Feature", "properties": { "STATEFP": "34", "COUNTYFP": "025", "TRACTCE": "801100", "AFFGEOID": "1400000US34025801100", "GEOID": "34025801100", "NAME": "8011", "NAMELSAD": "Census Tract 8011", "STUSPS": "NJ", "NAMELSADCO": "Monmouth County", "STATE_NAME": "New Jersey", "LSAD": "CT", "ALAND": 9669173, "AWATER": 18918, "population": 4508, "median_income": 188086.0, "commuters_total": 2160, "commuters_public_transport": "330", "households_total": "1573", "households_no_vehicle": "9", "state": "34", "county": "025", "tract": "801100", "state_abbr": "NJ", "EV Level2 EVSE Num": 0.0, "EV DC Fast Count": 0.0, "charger_count": 0.0, "dist_meters": 1243.0016373896683, "dist_to_hwy_miles": 0.77236732908500894, "pop_density": 466.0572903629166, "is_candidate": true, "chargers_assigned": 1 }, "geometry": { "type": "Point", "coordinates": [ -74.126067743707253, 40.390354559889005 ] } },
{ "type": "Feature", "properties": { "STATEFP": "34", "COUNTYFP": "039", "TRACTCE": "037000", "AFFGEOID": "1400000US34039037000", "GEOID": "34039037000", "NAME": "370", "NAMELSAD": "Census Tract 370", "STUSPS": "NJ", "NAMELSADCO": "Union County", "STATE_NAME": "New Jersey", "LSAD": "CT", "ALAND": 2961425, "AWATER": 13985, "population": 6052, "median_income": 149613.0, "commuters_total": 2972, "commuters_public_transport": "357", "households_total": "2559", "households_no_vehicle": "30", "state": "34", "county": "039", "tract": "037000", "state_abbr": "NJ", "EV Level2 EVSE Num": 0.0, "EV DC Fast Count": 0.0, "charger_count": 0.0, "dist_meters": 1002.057839325234, "dist_to_hwy_miles": 0.622651421902913, "pop_density": 2019.0401905767371, "is_candidate": true, "chargers_assigned": 1 }, "geometry": { "type": "Point", "coordinates": [ -74.298299136238029, 40.666192060994071 ] } },
{ "type": "Feature", "properties": { "STATEFP": "34", "COUNTYFP": "005", "TRACTCE": "700501", "AFFGEOID": "1400000US34005700501", "GEOID": "34005700501", "NAME": "7005.01", "NAMELSAD": "Census Tract 7005.01", "STUSPS": "NJ", "NAMELSADCO": "Burlington County", "STATE_NAME": "New Jersey", "LSAD": "CT", "ALAND": 5513413, "AWATER": 128362, "population": 5578, "median_income": 120369.0, "commuters_total": 2932, "commuters_public_transport": "169", "households_total": "2181", "households_no_vehicle": "21", "state": "34", "county": "005", "tract": "700501", "state_abbr": "NJ", "EV Level2 EVSE Num": 0.0, "EV DC Fast Count": 0.0, "charger_count": 0.0, "dist_meters": 774.00558558741216, "dist_to_hwy_miles": 0.48094596889868652, "pop_density": 988.41519073940663, "is_candidate": true, "chargers_assigned": 1 }, "geometry": { "type": "Point", "coordinates": [ -74.963571108227228, 39.954227229904603 ] } },
{ "type": "Feature", "properties": { "STATEFP": "34", "COUNTYFP": "023", "TRACTCE": "000403", "AFFGEOID": "1400000US34023000403", "GEOID": "34023000403", "NAME": "4.03", "NAMELSAD": "Census Tract 4.03", "STUSPS": "NJ", "NAMELSADCO": "Middlesex County", "STATE_NAME": "New Jersey", "LSAD": "CT", "ALAND": 2232121, "AWATER": 7523, "population": 5982, "median_income": 131609.0, "commuters_total": 3476, "commuters_public_transport": "266", "households_total": "2103", "households_no_vehicle": "41", "state": "34", "county": "023", "tract": "000403", "state_abbr": "NJ", "EV Level2 EVSE Num": 0.0, "EV DC Fast Count": 0.0, "charger_count": 0.0, "dist_meters": 1130.4245361772887, "dist_to_hwy_miles": 0.70241498762057042, "pop_density": 2661.5235252925495, "is_candidate": true, "chargers_assigned": 1 }, "geometry": { "type": "Point", "coordinates": [ -74.482624657230119, 40.565415894446225 ] } },
{ "type": "Feature", "properties": { "STATEFP": "34", "COUNTYFP": "023", "TRACTCE": "003401", "AFFGEOID": "1400000US34023003401", "GEOID": "34023003401", "NAME": "34.01", "NAMELSAD": "Census Tract 34.01", "STUSPS": "NJ", "NAMELSADCO": "Middlesex County", "STATE_NAME": "New Jersey", "LSAD": "CT", "ALAND": 5203498, "AWATER": 1507518, "population": 4031, "median_income": 107518.0, "commuters_total": 1875, "commuters_public_transport": "101", "households_total": "1425", "households_no_vehicle": "61", "state": "34", "county": "023", "tract": "003401", "state_abbr": "NJ", "EV Level2 EVSE Num": 0.0, "EV DC Fast Count": 0.0, "charger_count": 0.0, "dist_meters": 635.01530037980285, "dist_to_hwy_miles": 0.39458119501149719, "pop_density": 725.49487685727922, "is_candidate": true, "chargers_assigned": 1 }, "geometry": { "type": "Point", "coordinates": [ -74.257758674427407, 40.553615645834682 ] } },
{ "type": "Feature", "properties": { "STATEFP": "34", "COUNTYFP": "003", "TRACTCE": "054601", "AFFGEOID": "1400000US34003054601", "GEOID": "34003054601", "NAME": "546.01", "NAMELSAD": "Census Tract 546.01", "STUSPS": "NJ", "NAMELSADCO": "Bergen County", "STATE_NAME": "New Jersey", "LSAD": "CT", "ALAND": 1629060, "AWATER": 151255, "population": 2852, "median_income": 84712.0, "commuters_total": 1368, "commuters_public_transport": "202", "households_total": "1234", "households_no_vehicle": "52", "state": "34", "county": "003", "tract": "054601", "state_abbr": "NJ", "EV Level2 EVSE Num": 0.0, "EV DC Fast Count": 0.0, "charger_count": 0.0, "dist_meters": 242.39209955023628, "dist_to_hwy_miles": 0.15061584223982272, "pop_density": 1607.0933885893655, "is_candidate": true, "chargers_assigned": 1 }, "geometry": { "type": "Point", "coordinates": [ -74.011884591223392, 40.86784388345496 ] } },
{ "type": "Feature", "properties": { "STATEFP": "34", "COUNTYFP": "013", "TRACTCE": "010200", "AFFGEOID": "1400000US34013010200", "GEOID": "34013010200", "NAME": "102", "NAMELSAD": "Census Tract 102", "STUSPS": "NJ", "NAMELSADCO": "Essex County", "STATE_NAME": "New Jersey", "LSAD": "CT", "ALAND": 956900, "AWATER": 0, "population": 4629, "median_income": 49037.0, "commuters_total": 1971, "commuters_public_transport": "380", "households_total": "1829", "households_no_vehicle": "21", "state": "34", "county": "013", "tract": "010200", "state_abbr": "NJ", "EV Level2 EVSE Num": 0.0, "EV DC Fast Count": 0.0, "charger_count": 0.0, "dist_meters": 551.77809025539636, "dist_to_hwy_miles": 0.34285986196539975, "pop_density": 4837.7001208258262, "is_candidate": true, "chargers_assigned": 1 }, "geometry": { "type": "Point", "coordinates": [ -74.197543297083811, 40.772302647184532 ] } },
{ "type": "Feature", "properties": { "STATEFP": "42", "COUNTYFP": "017", "TRACTCE": "100214", "AFFGEOID": "1400000US42017100214", "GEOID": "42017100214", "NAME": "1002.14", "NAMELSAD": "Census Tract 1002.14", "STUSPS": "PA", "NAMELSADCO": "Bucks County", "STATE_NAME": "Pennsylvania", "LSAD": "CT", "ALAND": 1841198, "AWATER": 733, "population": 3834, "median_income": 69544.0, "commuters_total": 2201, "commuters_public_transport": "211", "households_total": "1419", "households_no_vehicle": "0", "state": "42", "county": "017", "tract": "100214", "state_abbr": "PA", "EV Level2 EVSE Num": 0.0, "EV DC Fast Count": 0.0, "charger_count": 0.0, "dist_meters": 963.550824327898, "dist_to_hwy_miles": 0.59872421261380315, "pop_density": 2080.7559027228604, "is_candidate": true, "chargers_assigned": 1 }, "geometry": { "type": "Point", "coordinates": [ -74.93604978804008, 40.093604938321086 ] } },
{ "type": "Feature", "properties": { "STATEFP": "42", "COUNTYFP": "091", "TRACTCE": "200308", "AFFGEOID": "1400000US42091200308", "GEOID": "42091200308", "NAME": "2003.08", "NAMELSAD": "Census Tract 2003.08", "STUSPS": "PA", "NAMELSADCO": "Montgomery County", "STATE_NAME": "Pennsylvania", "LSAD": "CT", "ALAND": 1765605, "AWATER": 759, "population": 4642, "median_income": 96563.0, "commuters_total": 2686, "commuters_public_transport": "42", "households_total": "1894", "households_no_vehicle": "0", "state": "42", "county": "091", "tract": "200308", "state_abbr": "PA", "EV Level2 EVSE Num": 0.0, "EV DC Fast Count": 0.0, "charger_count": 0.0, "dist_meters": 288.44875322645851, "dist_to_hwy_miles": 0.17923419117554931, "pop_density": 2625.1942691835052, "is_candidate": true, "chargers_assigned": 1 }, "geometry": { "type": "Point", "coordinates": [ -75.123799726188793, 40.149815272412006 ] } },
{ "type": "Feature", "properties": { "STATEFP": "42", "COUNTYFP": "101", "TRACTCE": "004202", "AFFGEOID": "1400000US42101004202", "GEOID": "42101004202", "NAME": "42.02", "NAMELSAD": "Census Tract 42.02", "STUSPS": "PA", "NAMELSADCO": "Philadelphia County", "STATE_NAME": "Pennsylvania", "LSAD": "CT", "ALAND": 453345, "AWATER": 0, "population": 5522, "median_income": 68419.0, "commuters_total": 2171, "commuters_public_transport": "286", "households_total": "2037", "households_no_vehicle": "311", "state": "42", "county": "101", "tract": "004202", "state_abbr": "PA", "EV Level2 EVSE Num": 0.0, "EV DC Fast Count": 0.0, "charger_count": 0.0, "dist_meters": 331.10829956590635, "dist_to_hwy_miles": 0.20574167022873127, "pop_density": 12262.164549640469, "is_candidate": true, "chargers_assigned": 1 }, "geometry": { "type": "Point", "coordinates": [ -75.151656544941773, 39.916876880258876 ] } },
{ "type": "Feature", "properties": { "STATEFP": "42", "COUNTYFP": "077", "TRACTCE": "000700", "AFFGEOID": "1400000US42077000700", "GEOID": "42077000700", "NAME": "7", "NAMELSAD": "Census Tract 7", "STUSPS": "PA", "NAMELSADCO": "Lehigh County", "STATE_NAME": "Pennsylvania", "LSAD": "CT", "ALAND": 750553, "AWATER": 69610, "population": 4142, "median_income": 41905.0, "commuters_total": 1917, "commuters_public_transport": "43", "households_total": "1248", "households_no_vehicle": "44", "state": "42", "county": "077", "tract": "000700", "state_abbr": "PA", "EV Level2 EVSE Num": 0.0, "EV DC Fast Count": 0.0, "charger_count": 0.0, "dist_meters": 1072.8352378695247, "dist_to_hwy_miles": 0.66663056772933293, "pop_density": 4794.2263622018718, "is_candidate": true, "chargers_assigned": 1 }, "geometry": { "type": "Point", "coordinates": [ -75.473814269316136, 40.617920712784951 ] } },
{ "type": "Feature", "properties": { "STATEFP": "42", "COUNTYFP": "091", "TRACTCE": "205300", "AFFGEOID": "1400000US42091205300", "GEOID": "42091205300", "NAME": "2053", "NAMELSAD": "Census Tract 2053", "STUSPS": "PA", "NAMELSADCO": "Montgomery County", "STATE_NAME": "Pennsylvania", "LSAD": "CT", "ALAND": 661572, "AWATER": 9903, "population": 2183, "median_income": 103029.0, "commuters_total": 1247, "commuters_public_transport": "99", "households_total": "975", "households_no_vehicle": "46", "state": "42", "county": "091", "tract": "205300", "state_abbr": "PA", "EV Level2 EVSE Num": 0.0, "EV DC Fast Count": 0.0, "charger_count": 0.0, "dist_meters": 196.76183847059545, "dist_to_hwy_miles": 0.12226244203872112, "pop_density": 3218.3097618803035, "is_candidate": true, "chargers_assigned": 1 }, "geometry": { "type": "Point", "coordinates": [ -75.298351642423484, 40.009468227600287 ] } },
{ "type": "Feature", "properties": { "STATEFP": "42", "COUNTYFP": "003", "TRACTCE": "430100", "AFFGEOID": "1400000US42003430100", "GEOID": "42003430100", "NAME": "4301", "NAMELSAD": "Census Tract 4301", "STUSPS": "PA", "NAMELSADCO": "Allegheny County", "STATE_NAME": "Pennsylvania", "LSAD": "CT", "ALAND": 854401, "AWATER": 0, "population": 2052, "median_income": 71136.0, "commuters_total": 1359, "commuters_public_transport": "30", "households_total": "960", "households_no_vehicle": "16", "state": "42", "county": "003", "tract": "430100", "state_abbr": "PA", "EV Level2 EVSE Num": 0.0, "EV DC Fast Count": 0.0, "charger_count": 0.0, "dist_meters": 867.7261763537382, "dist_to_hwy_miles": 0.53918138886359512, "pop_density": 2428.5454750961953, "is_candidate": true, "chargers_assigned": 1 }, "geometry": { "type": "Point", "coordinates": [ -80.024692319260708, 40.514466024933256 ] } },
{ "type": "Feature", "properties": { "STATEFP": "42", "COUNTYFP": "101", "TRACTCE": "029100", "AFFGEOID": "1400000US42101029100", "GEOID": "42101029100", "NAME": "291", "NAMELSAD": "Census Tract 291", "STUSPS": "PA", "NAMELSADCO": "Philadelphia County", "STATE_NAME": "Pennsylvania", "LSAD": "CT", "ALAND": 1316903, "AWATER": 17180, "population": 4316, "median_income": 32746.0, "commuters_total": 1826, "commuters_public_transport": "319", "households_total": "1742", "households_no_vehicle": "36", "state": "42", "county": "101", "tract": "029100", "state_abbr": "PA", "EV Level2 EVSE Num": 0.0, "EV DC Fast Count": 0.0, "charger_count": 0.0, "dist_meters": 91.373969546210418, "dist_to_hwy_miles": 0.05677729351548487, "pop_density": 3181.1351647156748, "is_candidate": true, "chargers_assigned": 1 }, "geometry": { "type": "Point", "coordinates": [ -75.10757731201727, 40.03619834733945 ] } },
{ "type": "Feature", "properties": { "STATEFP": "42", "COUNTYFP": "043", "TRACTCE": "021600", "AFFGEOID": "1400000US42043021600", "GEOID": "42043021600", "NAME": "216", "NAMELSAD": "Census Tract 216", "STUSPS": "PA", "NAMELSADCO": "Dauphin County", "STATE_NAME": "Pennsylvania", "LSAD": "CT", "ALAND": 681829, "AWATER": 0, "population": 3183, "median_income": 36050.0, "commuters_total": 1252, "commuters_public_transport": "86", "households_total": "1003", "households_no_vehicle": "45", "state": "42", "county": "043", "tract": "021600", "state_abbr": "PA", "EV Level2 EVSE Num": 0.0, "EV DC Fast Count": 0.0, "charger_count": 0.0, "dist_meters": 1373.1049670534858, "dist_to_hwy_miles": 0.85320999108546725, "pop_density": 4613.4883540306255, "is_candidate": true, "chargers_assigned": 1 }, "geometry": { "type": "Point", "coordinates": [ -76.860495980311555, 40.272487031447454 ] } },
{ "type": "Feature", "properties": { "STATEFP": "42", "COUNTYFP": "003", "TRACTCE": "561400", "AFFGEOID": "1400000US42003561400", "GEOID": "42003561400", "NAME": "5614", "NAMELSAD": "Census Tract 5614", "STUSPS": "PA", "NAMELSADCO": "Allegheny County", "STATE_NAME": "Pennsylvania", "LSAD": "CT", "ALAND": 1824590, "AWATER": 0, "population": 3566, "median_income": 39788.0, "commuters_total": 1397, "commuters_public_transport": "256", "households_total": "2303", "households_no_vehicle": "35", "state": "42", "county": "003", "tract": "561400", "state_abbr": "PA", "EV Level2 EVSE Num": 0.0, "EV DC Fast Count": 0.0, "charger_count": 0.0, "dist_meters": 794.87263273624819, "dist_to_hwy_miles": 0.49391218309135931, "pop_density": 1935.7395685065683, "is_candidate": true, "chargers_assigned": 1 }, "geometry": { "type": "Point", "coordinates": [ -79.862070003164817, 40.45060021207464 ] } },
{ "type": "Feature", "properties": { "STATEFP": "42", "COUNTYFP": "045", "TRACTCE": "407404", "AFFGEOID": "1400000US42045407404", "GEOID": "42045407404", "NAME": "4074.04", "NAMELSAD": "Census Tract 4074.04", "STUSPS": "PA", "NAMELSADCO": "Delaware County", "STATE_NAME": "Pennsylvania", "LSAD": "CT", "ALAND": 3490028, "AWATER": 0, "population": 3375, "median_income": 154487.0, "commuters_total": 1712, "commuters_public_transport": "69", "households_total": "1166", "households_no_vehicle": "8", "state": "42", "county": "045", "tract": "407404", "state_abbr": "PA", "EV Level2 EVSE Num": 0.0, "EV DC Fast Count": 0.0, "charger_count": 0.0, "dist_meters": 280.78478526439829, "dist_to_hwy_miles": 0.1744720104293675, "pop_density": 965.63106779430086, "is_candidate": true, "chargers_assigned": 1 }, "geometry": { "type": "Point", "coordinates": [ -75.362114354244596, 39.890083745517018 ] } },
{ "type": "Feature", "properties": { "STATEFP": "42", "COUNTYFP": "017", "TRACTCE": "105805", "AFFGEOID": "1400000US42017105805", "GEOID": "42017105805", "NAME": "1058.05", "NAMELSAD": "Census Tract 1058.05", "STUSPS": "PA", "NAMELSADCO": "Bucks County", "STATE_NAME": "Pennsylvania", "LSAD": "CT", "ALAND": 11675456, "AWATER": 2371534, "population": 6504, "median_income": 97607.0, "commuters_total": 3405, "commuters_public_transport": "56", "households_total": "2501", "households_no_vehicle": "83", "state": "42", "county": "017", "tract": "105805", "state_abbr": "PA", "EV Level2 EVSE Num": 0.0, "EV DC Fast Count": 0.0, "charger_count": 0.0, "dist_meters": 932.17523137066735, "dist_to_hwy_miles": 0.57922827455395842, "pop_density": 462.86792061881147, "is_candidate": true, "chargers_assigned": 1 }, "geometry": { "type": "Point", "coordinates": [ -74.795148690099722, 40.180170816595727 ] } },
{ "type": "Feature", "properties": { "STATEFP": "42", "COUNTYFP": "003", "TRACTCE": "479000", "AFFGEOID": "1400000US42003479000", "GEOID": "42003479000", "NAME": "4790", "NAMELSAD": "Census Tract 4790", "STUSPS": "PA", "NAMELSADCO": "Allegheny County", "STATE_NAME": "Pennsylvania", "LSAD": "CT", "ALAND": 1307994, "AWATER": 0, "population": 1962, "median_income": 80000.0, "commuters_total": 990, "commuters_public_transport": "41", "households_total": "828", "households_no_vehicle": "22", "state": "42", "county": "003", "tract": "479000", "state_abbr": "PA", "EV Level2 EVSE Num": 0.0, "EV DC Fast Count": 0.0, "charger_count": 0.0, "dist_meters": 1528.2349010698167, "dist_to_hwy_miles": 0.94960350272149874, "pop_density": 1496.3765843308231, "is_candidate": true, "chargers_assigned": 1 }, "geometry": { "type": "Point", "coordinates": [ -80.014180785864482, 40.380102758183057 ] } },
{ "type": "Feature", "properties": { "STATEFP": "42", "COUNTYFP": "011", "TRACTCE": "001300", "AFFGEOID": "1400000US42011001300", "GEOID": "42011001300", "NAME": "13", "NAMELSAD": "Census Tract 13", "STUSPS": "PA", "NAMELSADCO": "Berks County", "STATE_NAME": "Pennsylvania", "LSAD": "CT", "ALAND": 580434, "AWATER": 0, "population": 2805, "median_income": 41731.0, "commuters_total": 1090, "commuters_public_transport": "101", "households_total": "1026", "households_no_vehicle": "0", "state": "42", "county": "011", "tract": "001300", "state_abbr": "PA", "EV Level2 EVSE Num": 0.0, "EV DC Fast Count": 0.0, "charger_count": 0.0, "dist_meters": 1039.263354130338, "dist_to_hwy_miles": 0.64576991445582543, "pop_density": 4861.6019750530195, "is_candidate": true, "chargers_assigned": 1 }, "geometry": { "type": "Point", "coordinates": [ -75.928514321946437, 40.341597687121762 ] } },
{ "type": "Feature", "properties": { "STATEFP": "10", "COUNTYFP": "003", "TRACTCE": "002300", "AFFGEOID": "1400000US10003002300", "GEOID": "10003002300", "NAME": "23", "NAMELSAD": "Census Tract 23", "STUSPS": "DE", "NAMELSADCO": "New Castle County", "STATE_NAME": "Delaware", "LSAD": "CT", "ALAND": 341206, "AWATER": 0, "population": 2153, "median_income": 46806.0, "commuters_total": 913, "commuters_public_transport": "218", "households_total": "1045", "households_no_vehicle": "27", "state": "10", "county": "003", "tract": "002300", "state_abbr": "DE", "EV Level2 EVSE Num": 0.0, "EV DC Fast Count": 0.0, "charger_count": 0.0, "dist_meters": 835.64087893870158, "dist_to_hwy_miles": 0.51924445980259093, "pop_density": 6321.3217810352808, "is_candidate": true, "chargers_assigned": 1 }, "geometry": { "type": "Point", "coordinates": [ -75.569715019144112, 39.747334465404407 ] } },
{ "type": "Feature", "properties": { "STATEFP": "24", "COUNTYFP": "033", "TRACTCE": "803801", "AFFGEOID": "1400000US24033803801", "GEOID": "24033803801", "NAME": "8038.01", "NAMELSAD": "Census Tract 8038.01", "STUSPS": "MD", "NAMELSADCO": "Prince George's County", "STATE_NAME": "Maryland", "LSAD": "CT", "ALAND": 1249305, "AWATER": 0, "population": 2537, "median_income": 99333.0, "commuters_total": 1126, "commuters_public_transport": "70", "households_total": "694", "households_no_vehicle": "33", "state": "24", "county": "033", "tract": "803801", "state_abbr": "MD", "EV Level2 EVSE Num": 0.0, "EV DC Fast Count": 0.0, "charger_count": 0.0, "dist_meters": 326.76578928547985, "dist_to_hwy_miles": 0.20304335273185273, "pop_density": 2051.8021745909718, "is_candidate": true, "chargers_assigned": 1 }, "geometry": { "type": "Point", "coordinates": [ -76.905238278078897, 38.945764856299562 ] } },
{ "type": "Feature", "properties": { "STATEFP": "24", "COUNTYFP": "033", "TRACTCE": "801701", "AFFGEOID": "1400000US24033801701", "GEOID": "24033801701", "NAME": "8017.01", "NAMELSAD": "Census Tract 8017.01", "STUSPS": "MD", "NAMELSADCO": "Prince George's County", "STATE_NAME": "Maryland", "LSAD": "CT", "ALAND": 2167949, "AWATER": 0, "population": 4539, "median_income": 66793.0, "commuters_total": 2215, "commuters_public_transport": "327", "households_total": "1722", "households_no_vehicle": "72", "state": "24", "county": "033", "tract": "801701", "state_abbr": "MD", "EV Level2 EVSE Num": 0.0, "EV DC Fast Count": 0.0, "charger_count": 0.0, "dist_meters": 1237.265691904792, "dist_to_hwy_miles": 0.76880316894179734, "pop_density": 2109.3725573006018, "is_candidate": true, "chargers_assigned": 1 }, "geometry": { "type": "Point", "coordinates": [ -76.943591855139502, 38.806661098071068 ] } },
{ "type": "Feature", "properties": { "STATEFP": "24", "COUNTYFP": "031", "TRACTCE": "701506", "AFFGEOID": "1400000US24031701506", "GEOID": "24031701506", "NAME": "7015.06", "NAMELSAD": "Census Tract 7015.06", "STUSPS": "MD", "NAMELSADCO": "Montgomery County", "STATE_NAME": "Maryland", "LSAD": "CT", "ALAND": 6061219, "AWATER": 5209, "population": 5073, "median_income": 171419.0, "commuters_total": 2592, "commuters_public_transport": "160", "households_total": "1770", "households_no_vehicle": "12", "state": "24", "county": "031", "tract": "701506", "state_abbr": "MD", "EV Level2 EVSE Num": 0.0, "EV DC Fast Count": 0.0, "charger_count": 0.0, "dist_meters": 1534.8491835140708, "dist_to_hwy_miles": 0.95371343750485971, "pop_density": 832.40803968182024, "is_candidate": true, "chargers_assigned": 1 }, "geometry": { "type": "Point", "coordinates": [ -77.006057159324797, 39.054505814406667 ] } },
{ "type": "Feature", "properties": { "STATEFP": "24", "COUNTYFP": "510", "TRACTCE": "280402", "AFFGEOID": "1400000US24510280402", "GEOID": "24510280402", "NAME": "2804.02", "NAMELSAD": "Census Tract 2804.02", "STUSPS": "MD", "NAMELSADCO": "Baltimore city", "STATE_NAME": "Maryland", "LSAD": "CT", "ALAND": 561712, "AWATER": 0, "population": 1451, "median_income": 63188.0, "commuters_total": 546, "commuters_public_transport": "53", "households_total": "617", "households_no_vehicle": "79", "state": "24", "county": "510", "tract": "280402", "state_abbr": "MD", "EV Level2 EVSE Num": 0.0, "EV DC Fast Count": 0.0, "charger_count": 0.0, "dist_meters": 1573.7761302603565, "dist_to_hwy_miles": 0.97790158093402046, "pop_density": 2597.6486185084091, "is_candidate": true, "chargers_assigned": 1 }, "geometry": { "type": "Point", "coordinates": [ -76.690339174490987, 39.299263644336257 ] } },
{ "type": "Feature", "properties": { "STATEFP": "24", "COUNTYFP": "003", "TRACTCE": "730206", "AFFGEOID": "1400000US24003730206", "GEOID": "24003730206", "NAME": "7302.06", "NAMELSAD": "Census Tract 7302.06", "STUSPS": "MD", "NAMELSADCO": "Anne Arundel County", "STATE_NAME": "Maryland", "LSAD": "CT", "ALAND": 1449969, "AWATER": 120057, "population": 3247, "median_income": 66452.0, "commuters_total": 1885, "commuters_public_transport": "18", "households_total": "1550", "households_no_vehicle": "21", "state": "24", "county": "003", "tract": "730206", "state_abbr": "MD", "EV Level2 EVSE Num": 0.0, "EV DC Fast Count": 0.0, "charger_count": 0.0, "dist_meters": 569.88752822641027, "dist_to_hwy_miles": 0.35411257299663856, "pop_density": 2072.0769071867126, "is_candidate": true, "chargers_assigned": 1 }, "geometry": { "type": "Point", "coordinates": [ -76.592451958926702, 39.152120834753497 ] } },
{ "type": "Feature", "properties": { "STATEFP": "24", "COUNTYFP": "005", "TRACTCE": "441000", "AFFGEOID": "1400000US24005441000", "GEOID": "24005441000", "NAME": "4410", "NAMELSAD": "Census Tract 4410", "STUSPS": "MD", "NAMELSADCO": "Baltimore County", "STATE_NAME": "Maryland", "LSAD": "CT", "ALAND": 1387326, "AWATER": 0, "population": 3928, "median_income": 66359.0, "commuters_total": 1868, "commuters_public_transport": "206", "households_total": "1367", "households_no_vehicle": "77", "state": "24", "county": "005", "tract": "441000", "state_abbr": "MD", "EV Level2 EVSE Num": 0.0, "EV DC Fast Count": 0.0, "charger_count": 0.0, "dist_meters": 375.51750709230578, "dist_to_hwy_miles": 0.23333634104185927, "pop_density": 2876.357680737035, "is_candidate": true, "chargers_assigned": 1 }, "geometry": { "type": "Point", "coordinates": [ -76.523591869193297, 39.334719909117659 ] } },
{ "type": "Feature", "properties": { "STATEFP": "11", "COUNTYFP": "001", "TRACTCE": "005004", "AFFGEOID": "1400000US11001005004", "GEOID": "11001005004", "NAME": "50.04", "NAMELSAD": "Census Tract 50.04", "STUSPS": "DC", "NAMELSADCO": "District of Columbia", "STATE_NAME": "District of Columbia", "LSAD": "CT", "ALAND": 143156, "AWATER": 0, "population": 3891, "median_income": 86422.0, "commuters_total": 2404, "commuters_public_transport": "413", "households_total": "2260", "households_no_vehicle": "260", "state": "11", "county": "001", "tract": "005004", "state_abbr": "DC", "EV Level2 EVSE Num": 0.0, "EV DC Fast Count": 0.0, "charger_count": 0.0, "dist_meters": 113.16897378726306, "dist_to_hwy_miles": 0.070320114946041901, "pop_density": 26624.396556650827, "is_candidate": true, "chargers_assigned": 1 }, "geometry": { "type": "Point", "coordinates": [ -77.028354212297003, 38.907311823807085 ] } },
{ "type": "Feature", "properties": { "STATEFP": "51", "COUNTYFP": "059", "TRACTCE": "492202", "AFFGEOID": "1400000US51059492202", "GEOID": "51059492202", "NAME": "4922.02", "NAMELSAD": "Census Tract 4922.02", "STUSPS": "VA", "NAMELSADCO": "Fairfax County", "STATE_NAME": "Virginia", "LSAD": "CT", "ALAND": 5746376, "AWATER": 166579, "population": 6777, "median_income": 217455.0, "commuters_total": 2927, "commuters_public_transport": "162", "households_total": "2115", "households_no_vehicle": "0", "state": "51", "county": "059", "tract": "492202", "state_abbr": "VA", "EV Level2 EVSE Num": 0.0, "EV DC Fast Count": 0.0, "charger_count": 0.0, "dist_meters": 1075.0309350065252, "dist_to_hwy_miles": 0.6679949140682051, "pop_density": 1144.7754968788254, "is_candidate": true, "chargers_assigned": 1 }, "geometry": { "type": "Point", "coordinates": [ -77.267068003603598, 38.74057587744695 ] } },
{ "type": "Feature", "properties": { "STATEFP": "51", "COUNTYFP": "760", "TRACTCE": "020100", "AFFGEOID": "1400000US51760020100", "GEOID": "51760020100", "NAME": "201", "NAMELSAD": "Census Tract 201", "STUSPS": "VA", "NAMELSADCO": "Richmond city", "STATE_NAME": "Virginia", "LSAD": "CT", "ALAND": 990144, "AWATER": 0, "population": 1651, "median_income": 20753.0, "commuters_total": 355, "commuters_public_transport": "28", "households_total": "652", "households_no_vehicle": "8", "state": "51", "county": "760", "tract": "020100", "state_abbr": "VA", "EV Level2 EVSE Num": 0.0, "EV DC Fast Count": 0.0, "charger_count": 0.0, "dist_meters": 492.25396565461114, "dist_to_hwy_miles": 0.30587319376552574, "pop_density": 1727.9954678824599, "is_candidate": true, "chargers_assigned": 1 }, "geometry": { "type": "Point", "coordinates": [ -77.41799848935861, 37.554644632881342 ] } },
{ "type": "Feature", "properties": { "STATEFP": "51", "COUNTYFP": "059", "TRACTCE": "420203", "AFFGEOID": "1400000US51059420203", "GEOID": "51059420203", "NAME": "4202.03", "NAMELSAD": "Census Tract 4202.03", "STUSPS": "VA", "NAMELSADCO": "Fairfax County", "STATE_NAME": "Virginia", "LSAD": "CT", "ALAND": 2010266, "AWATER": 525, "population": 2856, "median_income": 198168.0, "commuters_total": 1567, "commuters_public_transport": "73", "households_total": "1043", "households_no_vehicle": "21", "state": "51", "county": "059", "tract": "420203", "state_abbr": "VA", "EV Level2 EVSE Num": 0.0, "EV DC Fast Count": 0.0, "charger_count": 0.0, "dist_meters": 588.97519481018048, "dist_to_hwy_miles": 0.36597312861805492, "pop_density": 1409.1328593190672, "is_candidate": true, "chargers_assigned": 1 }, "geometry": { "type": "Point", "coordinates": [ -77.12921349823678, 38.791841271908808 ] } },
{ "type": "Feature", "properties": { "STATEFP": "51", "COUNTYFP": "087", "TRACTCE": "200125", "AFFGEOID": "1400000US51087200125", "GEOID": "51087200125", "NAME": "2001.25", "NAMELSAD": "Census Tract 2001.25", "STUSPS": "VA", "NAMELSADCO": "Henrico County", "STATE_NAME": "Virginia", "LSAD": "CT", "ALAND": 984556, "AWATER": 736, "population": 4129, "median_income": 70304.0, "commuters_total": 2253, "commuters_public_transport": "10", "households_total": "1723", "households_no_vehicle": "0", "state": "51", "county": "087", "tract": "200125", "state_abbr": "VA", "EV Level2 EVSE Num": 0.0, "EV DC Fast Count": 0.0, "charger_count": 0.0, "dist_meters": 319.62404357394024, "dist_to_hwy_miles": 0.19860566665461635, "pop_density": 4227.8569150051489, "is_candidate": true, "chargers_assigned": 1 }, "geometry": { "type": "Point", "coordinates": [ -77.560363640204173, 37.63083384272349 ] } },
{ "type": "Feature", "properties": { "STATEFP": "51", "COUNTYFP": "710", "TRACTCE": "006606", "AFFGEOID": "1400000US51710006606", "GEOID": "51710006606", "NAME": "66.06", "NAMELSAD": "Census Tract 66.06", "STUSPS": "VA", "NAMELSADCO": "Norfolk city", "STATE_NAME": "Virginia", "LSAD": "CT", "ALAND": 2130568, "AWATER": 92031, "population": 3769, "median_income": 70104.0, "commuters_total": 1886, "commuters_public_transport": "1", "households_total": "1781", "households_no_vehicle": "44", "state": "51", "county": "710", "tract": "006606", "state_abbr": "VA", "EV Level2 EVSE Num": 0.0, "EV DC Fast Count": 0.0, "charger_count": 0.0, "dist_meters": 1224.4811793698439, "dist_to_hwy_miles": 0.76085922140122286, "pop_density": 1692.9252102794023, "is_candidate": true, "chargers_assigned": 1 }, "geometry": { "type": "Point", "coordinates": [ -76.225951516176067, 36.909520113878095 ] } },
{ "type": "Feature", "properties": { "STATEFP": "51", "COUNTYFP": "059", "TRACTCE": "482604", "AFFGEOID": "1400000US51059482604", "GEOID": "51059482604", "NAME": "4826.04", "NAMELSAD": "Census Tract 4826.04", "STUSPS": "VA", "NAMELSADCO": "Fairfax County", "STATE_NAME": "Virginia", "LSAD": "CT", "ALAND": 3555053, "AWATER": 43313, "population": 3896, "median_income": 224484.0, "commuters_total": 2285, "commuters_public_transport": "93", "households_total": "1277", "households_no_vehicle": "0", "state": "51", "county": "059", "tract": "482604", "state_abbr": "VA", "EV Level2 EVSE Num": 0.0, "EV DC Fast Count": 0.0, "charger_count": 0.0, "dist_meters": 19.614345019846049, "dist_to_hwy_miles": 0.012187819242575247, "pop_density": 1078.5803506001923, "is_candidate": true, "chargers_assigned": 1 }, "geometry": { "type": "Point", "coordinates": [ -77.391946450438056, 38.888926938975793 ] } },
{ "type": "Feature", "properties": { "STATEFP": "51", "COUNTYFP": "683", "TRACTCE": "910201", "AFFGEOID": "1400000US51683910201", "GEOID": "51683910201", "NAME": "9102.01", "NAMELSAD": "Census Tract 9102.01", "STUSPS": "VA", "NAMELSADCO": "Manassas city", "STATE_NAME": "Virginia", "LSAD": "CT", "ALAND": 2725489, "AWATER": 0, "population": 5540, "median_income": 119107.0, "commuters_total": 2925, "commuters_public_transport": "72", "households_total": "1828", "households_no_vehicle": "8", "state": "51", "county": "683", "tract": "910201", "state_abbr": "VA", "EV Level2 EVSE Num": 0.0, "EV DC Fast Count": 0.0, "charger_count": 0.0, "dist_meters": 795.9642224751434, "dist_to_hwy_miles": 0.4945904671947155, "pop_density": 2034.1191847645916, "is_candidate": true, "chargers_assigned": 1 }, "geometry": { "type": "Point", "coordinates": [ -77.471180584012373, 38.762302954720482 ] } },
{ "type": "Feature", "properties": { "STATEFP": "51", "COUNTYFP": "550", "TRACTCE": "020500", "AFFGEOID": "1400000US51550020500", "GEOID": "51550020500", "NAME": "205", "NAMELSAD": "Census Tract 205", "STUSPS": "VA", "NAMELSADCO": "Chesapeake city", "STATE_NAME": "Virginia", "LSAD": "CT", "ALAND": 4657865, "AWATER": 1678145, "population": 2316, "median_income": 64050.0, "commuters_total": 1154, "commuters_public_transport": "0", "households_total": "801", "households_no_vehicle": "8", "state": "51", "county": "550", "tract": "020500", "state_abbr": "VA", "EV Level2 EVSE Num": 0.0, "EV DC Fast Count": 0.0, "charger_count": 0.0, "dist_meters": 633.72938654386257, "dist_to_hwy_miles": 0.39378216321216314, "pop_density": 366.37434530290193, "is_candidate": true, "chargers_assigned": 1 }, "geometry": { "type": "Point", "coordinates": [ -76.290405661234942, 36.793461750375094 ] } },
{ "type": "Feature", "properties": { "STATEFP": "51", "COUNTYFP": "153", "TRACTCE": "900410", "AFFGEOID": "1400000US51153900410", "GEOID": "51153900410", "NAME": "9004.10", "NAMELSAD": "Census Tract 9004.10", "STUSPS": "VA", "NAMELSADCO": "Prince William County", "STATE_NAME": "Virginia", "LSAD": "CT", "ALAND": 4334980, "AWATER": 22240, "population": 5891, "median_income": 79196.0, "commuters_total": 3286, "commuters_public_transport": "364", "households_total": "2078", "households_no_vehicle": "0", "state": "51", "county": "153", "tract": "900410", "state_abbr": "VA", "EV Level2 EVSE Num": 0.0, "EV DC Fast Count": 0.0, "charger_count": 0.0, "dist_meters": 470.99599510378647, "dist_to_hwy_miles": 0.29266407042873882, "pop_density": 1347.5788170915944, "is_candidate": true, "chargers_assigned": 1 }, "geometry": { "type": "Point", "coordinates": [ -77.303785092160624, 38.619654563733988 ] } },
{ "type": "Feature", "properties": { "STATEFP": "51", "COUNTYFP": "059", "TRACTCE": "471304", "AFFGEOID": "1400000US51059471304", "GEOID": "51059471304", "NAME": "4713.04", "NAMELSAD": "Census Tract 4713.04", "STUSPS": "VA", "NAMELSADCO": "Fairfax County", "STATE_NAME": "Virginia", "LSAD": "CT", "ALAND": 1464321, "AWATER": 0, "population": 2142, "median_income": 221429.0, "commuters_total": 930, "commuters_public_transport": "100", "households_total": "720", "households_no_vehicle": "96", "state": "51", "county": "059", "tract": "471304", "state_abbr": "VA", "EV Level2 EVSE Num": 0.0, "EV DC Fast Count": 0.0, "charger_count": 0.0, "dist_meters": 251.13338298943961, "dist_to_hwy_miles": 0.15604743745227212, "pop_density": 1463.9290964058646, "is_candidate": true, "chargers_assigned": 1 }, "geometry": { "type": "Point", "coordinates": [ -77.205344402165835, 38.890999762109232 ] } },
{ "type": "Feature", "properties": { "STATEFP": "51", "COUNTYFP": "041", "TRACTCE": "100208", "AFFGEOID": "1400000US51041100208", "GEOID": "51041100208", "NAME": "1002.08", "NAMELSAD": "Census Tract 1002.08", "STUSPS": "VA", "NAMELSADCO": "Chesterfield County", "STATE_NAME": "Virginia", "LSAD": "CT", "ALAND": 4427062, "AWATER": 0, "population": 2363, "median_income": 118472.0, "commuters_total": 1094, "commuters_public_transport": "0", "households_total": "985", "households_no_vehicle": "0", "state": "51", "county": "041", "tract": "100208", "state_abbr": "VA", "EV Level2 EVSE Num": 0.0, "EV DC Fast Count": 0.0, "charger_count": 0.0, "dist_meters": 1135.370594369884, "dist_to_hwy_miles": 0.70548833333533256, "pop_density": 533.76873014291527, "is_candidate": true, "chargers_assigned": 1 }, "geometry": { "type": "Point", "coordinates": [ -77.568100706146495, 37.459774950534744 ] } },
{ "type": "Feature", "properties": { "STATEFP": "37", "COUNTYFP": "119", "TRACTCE": "005406", "AFFGEOID": "1400000US37119005406", "GEOID": "37119005406", "NAME": "54.06", "NAMELSAD": "Census Tract 54.06", "STUSPS": "NC", "NAMELSADCO": "Mecklenburg County", "STATE_NAME": "North Carolina", "LSAD": "CT", "ALAND": 7499253, "AWATER": 82362, "population": 3967, "median_income": 48337.0, "commuters_total": 1901, "commuters_public_transport": "27", "households_total": "1703", "households_no_vehicle": "7", "state": "37", "county": "119", "tract": "005406", "state_abbr": "NC", "EV Level2 EVSE Num": 0.0, "EV DC Fast Count": 0.0, "charger_count": 0.0, "dist_meters": 814.3815275737104, "dist_to_hwy_miles": 0.50603447846552652, "pop_density": 522.05501673955916, "is_candidate": true, "chargers_assigned": 1 }, "geometry": { "type": "Point", "coordinates": [ -80.860104113284734, 35.28936068084051 ] } },
{ "type": "Feature", "properties": { "STATEFP": "37", "COUNTYFP": "063", "TRACTCE": "001301", "AFFGEOID": "1400000US37063001301", "GEOID": "37063001301", "NAME": "13.01", "NAMELSAD": "Census Tract 13.01", "STUSPS": "NC", "NAMELSADCO": "Durham County", "STATE_NAME": "North Carolina", "LSAD": "CT", "ALAND": 747645, "AWATER": 757, "population": 1876, "median_income": 45446.0, "commuters_total": 832, "commuters_public_transport": "78", "households_total": "828", "households_no_vehicle": "15", "state": "37", "county": "063", "tract": "001301", "state_abbr": "NC", "EV Level2 EVSE Num": 0.0, "EV DC Fast Count": 0.0, "charger_count": 0.0, "dist_meters": 661.41372249142933, "dist_to_hwy_miles": 0.41098445480223528, "pop_density": 2569.2986674919935, "is_candidate": true, "chargers_assigned": 1 }, "geometry": { "type": "Point", "coordinates": [ -78.89919741236524, 35.98021947232894 ] } },
{ "type": "Feature", "properties": { "STATEFP": "37", "COUNTYFP": "129", "TRACTCE": "010700", "AFFGEOID": "1400000US37129010700", "GEOID": "37129010700", "NAME": "107", "NAMELSAD": "Census Tract 107", "STUSPS": "NC", "NAMELSADCO": "New Hanover County", "STATE_NAME": "North Carolina", "LSAD": "CT", "ALAND": 3203298, "AWATER": 103039, "population": 4306, "median_income": 38390.0, "commuters_total": 1750, "commuters_public_transport": "12", "households_total": "2091", "households_no_vehicle": "9", "state": "37", "county": "129", "tract": "010700", "state_abbr": "NC", "EV Level2 EVSE Num": 0.0, "EV DC Fast Count": 0.0, "charger_count": 0.0, "dist_meters": 810.91081431309476, "dist_to_hwy_miles": 0.50387787186865096, "pop_density": 1304.6097216441249, "is_candidate": true, "chargers_assigned": 1 }, "geometry": { "type": "Point", "coordinates": [ -77.928451679192406, 34.198298499476593 ] } },
{ "type": "Feature", "properties": { "STATEFP": "37", "COUNTYFP": "183", "TRACTCE": "052304", "AFFGEOID": "1400000US37183052304", "GEOID": "37183052304", "NAME": "523.04", "NAMELSAD": "Census Tract 523.04", "STUSPS": "NC", "NAMELSADCO": "Wake County", "STATE_NAME": "North Carolina", "LSAD": "CT", "ALAND": 1316996, "AWATER": 0, "population": 2944, "median_income": 60524.0, "commuters_total": 1132, "commuters_public_transport": "46", "households_total": "1029", "households_no_vehicle": "0", "state": "37", "county": "183", "tract": "052304", "state_abbr": "NC", "EV Level2 EVSE Num": 0.0, "EV DC Fast Count": 0.0, "charger_count": 0.0, "dist_meters": 312.66618806024189, "dist_to_hwy_miles": 0.19428224493285565, "pop_density": 2229.4305078051448, "is_candidate": true, "chargers_assigned": 1 }, "geometry": { "type": "Point", "coordinates": [ -78.677709432976272, 35.752348612569598 ] } },
{ "type": "Feature", "properties": { "STATEFP": "37", "COUNTYFP": "081", "TRACTCE": "010500", "AFFGEOID": "1400000US37081010500", "GEOID": "37081010500", "NAME": "105", "NAMELSAD": "Census Tract 105", "STUSPS": "NC", "NAMELSADCO": "Guilford County", "STATE_NAME": "North Carolina", "LSAD": "CT", "ALAND": 2694520, "AWATER": 18672, "population": 2267, "median_income": 70294.0, "commuters_total": 1119, "commuters_public_transport": "21", "households_total": "1138", "households_no_vehicle": "0", "state": "37", "county": "081", "tract": "010500", "state_abbr": "NC", "EV Level2 EVSE Num": 0.0, "EV DC Fast Count": 0.0, "charger_count": 0.0, "dist_meters": 546.51710739293799, "dist_to_hwy_miles": 0.33959083064668621, "pop_density": 838.21515453456561, "is_candidate": true, "chargers_assigned": 1 }, "geometry": { "type": "Point", "coordinates": [ -79.818722889752323, 36.081337108221312 ] } },
{ "type": "Feature", "properties": { "STATEFP": "37", "COUNTYFP": "119", "TRACTCE": "001924", "AFFGEOID": "1400000US37119001924", "GEOID": "37119001924", "NAME": "19.24", "NAMELSAD": "Census Tract 19.24", "STUSPS": "NC", "NAMELSADCO": "Mecklenburg County", "STATE_NAME": "North Carolina", "LSAD": "CT", "ALAND": 1083279, "AWATER": 0, "population": 2732, "median_income": 34943.0, "commuters_total": 979, "commuters_public_transport": "0", "households_total": "919", "households_no_vehicle": "23", "state": "37", "county": "119", "tract": "001924", "state_abbr": "NC", "EV Level2 EVSE Num": 0.0, "EV DC Fast Count": 0.0, "charger_count": 0.0, "dist_meters": 1162.3476522153328, "dist_to_hwy_miles": 0.72225114159551917, "pop_density": 2513.5064431324204, "is_candidate": true, "chargers_assigned": 1 }, "geometry": { "type": "Point", "coordinates": [ -80.735287912520278, 35.21333130629715 ] } },
{ "type": "Feature", "properties": { "STATEFP": "45", "COUNTYFP": "045", "TRACTCE": "000500", "AFFGEOID": "1400000US45045000500", "GEOID": "45045000500", "NAME": "5", "NAMELSAD": "Census Tract 5", "STUSPS": "SC", "NAMELSADCO": "Greenville County", "STATE_NAME": "South Carolina", "LSAD": "CT", "ALAND": 1058897, "AWATER": 0, "population": 1411, "median_income": 22236.0, "commuters_total": 561, "commuters_public_transport": "0", "households_total": "807", "households_no_vehicle": "0", "state": "45", "county": "045", "tract": "000500", "state_abbr": "SC", "EV Level2 EVSE Num": 0.0, "EV DC Fast Count": 0.0, "charger_count": 0.0, "dist_meters": 959.99366846783346, "dist_to_hwy_miles": 0.59651389294234503, "pop_density": 1335.2969904380327, "is_candidate": true, "chargers_assigned": 1 }, "geometry": { "type": "Point", "coordinates": [ -82.411532025350624, 34.837696667458182 ] } },
{ "type": "Feature", "properties": { "STATEFP": "45", "COUNTYFP": "063", "TRACTCE": "020506", "AFFGEOID": "1400000US45063020506", "GEOID": "45063020506", "NAME": "205.06", "NAMELSAD": "Census Tract 205.06", "STUSPS": "SC", "NAMELSADCO": "Lexington County", "STATE_NAME": "South Carolina", "LSAD": "CT", "ALAND": 12575360, "AWATER": 216000, "population": 4435, "median_income": 67975.0, "commuters_total": 2379, "commuters_public_transport": "0", "households_total": "2277", "households_no_vehicle": "52", "state": "45", "county": "063", "tract": "020506", "state_abbr": "SC", "EV Level2 EVSE Num": 0.0, "EV DC Fast Count": 0.0, "charger_count": 0.0, "dist_meters": 671.10601156866915, "dist_to_hwy_miles": 0.41700697899056083, "pop_density": 346.52323348280981, "is_candidate": true, "chargers_assigned": 1 }, "geometry": { "type": "Point", "coordinates": [ -81.130575069197491, 34.015060145170963 ] } },
{ "type": "Feature", "properties": { "STATEFP": "13", "COUNTYFP": "121", "TRACTCE": "002400", "AFFGEOID": "1400000US13121002400", "GEOID": "13121002400", "NAME": "24", "NAMELSAD": "Census Tract 24", "STUSPS": "GA", "NAMELSADCO": "Fulton County", "STATE_NAME": "Georgia", "LSAD": "CT", "ALAND": 1352246, "AWATER": 0, "population": 2804, "median_income": 32763.0, "commuters_total": 978, "commuters_public_transport": "81", "households_total": "1068", "households_no_vehicle": "32", "state": "13", "county": "121", "tract": "002400", "state_abbr": "GA", "EV Level2 EVSE Num": 0.0, "EV DC Fast Count": 0.0, "charger_count": 0.0, "dist_meters": 1345.202079926931, "dist_to_hwy_miles": 0.83587189775120918, "pop_density": 2070.9754415356483, "is_candidate": true, "chargers_assigned": 1 }, "geometry": { "type": "Point", "coordinates": [ -84.424806183171313, 33.758647086638625 ] } },
{ "type": "Feature", "properties": { "STATEFP": "13", "COUNTYFP": "089", "TRACTCE": "023504", "AFFGEOID": "1400000US13089023504", "GEOID": "13089023504", "NAME": "235.04", "NAMELSAD": "Census Tract 235.04", "STUSPS": "GA", "NAMELSADCO": "DeKalb County", "STATE_NAME": "Georgia", "LSAD": "CT", "ALAND": 2196595, "AWATER": 0, "population": 2882, "median_income": 49156.0, "commuters_total": 1411, "commuters_public_transport": "247", "households_total": "1127", "households_no_vehicle": "45", "state": "13", "county": "089", "tract": "023504", "state_abbr": "GA", "EV Level2 EVSE Num": 0.0, "EV DC Fast Count": 0.0, "charger_count": 0.0, "dist_meters": 1091.8863385760114, "dist_to_hwy_miles": 0.67846840231151373, "pop_density": 1314.9460361837048, "is_candidate": true, "chargers_assigned": 1 }, "geometry": { "type": "Point", "coordinates": [ -84.272078194311945, 33.723998599112022 ] } },
{ "type": "Feature", "properties": { "STATEFP": "13", "COUNTYFP": "135", "TRACTCE": "050757", "AFFGEOID": "1400000US13135050757", "GEOID": "13135050757", "NAME": "507.57", "NAMELSAD": "Census Tract 507.57", "STUSPS": "GA", "NAMELSADCO": "Gwinnett County", "STATE_NAME": "Georgia", "LSAD": "CT", "ALAND": 2953463, "AWATER": 3348, "population": 4898, "median_income": 130417.0, "commuters_total": 2433, "commuters_public_transport": "14", "households_total": "1149", "households_no_vehicle": "12", "state": "13", "county": "135", "tract": "050757", "state_abbr": "GA", "EV Level2 EVSE Num": 0.0, "EV DC Fast Count": 0.0, "charger_count": 0.0, "dist_meters": 1042.116364521911, "dist_to_hwy_miles": 0.64754269733052749, "pop_density": 1657.0275145046394, "is_candidate": true, "chargers_assigned": 1 }, "geometry": { "type": "Point", "coordinates": [ -84.039185539059858, 33.900668079414245 ] } },
{ "type": "Feature", "properties": { "STATEFP": "13", "COUNTYFP": "063", "TRACTCE": "040609", "AFFGEOID": "1400000US13063040609", "GEOID": "13063040609", "NAME": "406.09", "NAMELSAD": "Census Tract 406.09", "STUSPS": "GA", "NAMELSADCO": "Clayton County", "STATE_NAME": "Georgia", "LSAD": "CT", "ALAND": 9303784, "AWATER": 100557, "population": 7868, "median_income": 80774.0, "commuters_total": 4017, "commuters_public_transport": "154", "households_total": "2376", "households_no_vehicle": "0", "state": "13", "county": "063", "tract": "040609", "state_abbr": "GA", "EV Level2 EVSE Num": 0.0, "EV DC Fast Count": 0.0, "charger_count": 0.0, "dist_meters": 905.3468909297527, "dist_to_hwy_miles": 0.56255787523441458, "pop_density": 837.19553681803552, "is_candidate": true, "chargers_assigned": 1 }, "geometry": { "type": "Point", "coordinates": [ -84.328853458550739, 33.545458317002954 ] } },
{ "type": "Feature", "properties": { "STATEFP": "13", "COUNTYFP": "089", "TRACTCE": "021710", "AFFGEOID": "1400000US13089021710", "GEOID": "13089021710", "NAME": "217.10", "NAMELSAD": "Census Tract 217.10", "STUSPS": "GA", "NAMELSADCO": "DeKalb County", "STATE_NAME": "Georgia", "LSAD": "CT", "ALAND": 2803460, "AWATER": 16724, "population": 2398, "median_income": 164167.0, "commuters_total": 1196, "commuters_public_transport": "0", "households_total": "976", "households_no_vehicle": "0", "state": "13", "county": "089", "tract": "021710", "state_abbr": "GA", "EV Level2 EVSE Num": 0.0, "EV DC Fast Count": 0.0, "charger_count": 0.0, "dist_meters": 1221.4045115835745, "dist_to_hwy_miles": 0.75894746391910628, "pop_density": 851.47273440320009, "is_candidate": true, "chargers_assigned": 1 }, "geometry": { "type": "Point", "coordinates": [ -84.261978818583898, 33.863179824518383 ] } },
{ "type": "Feature", "properties": { "STATEFP": "13", "COUNTYFP": "135", "TRACTCE": "050218", "AFFGEOID": "1400000US13135050218", "GEOID": "13135050218", "NAME": "502.18", "NAMELSAD": "Census Tract 502.18", "STUSPS": "GA", "NAMELSADCO": "Gwinnett County", "STATE_NAME": "Georgia", "LSAD": "CT", "ALAND": 3345198, "AWATER": 63683, "population": 4360, "median_income": 70837.0, "commuters_total": 2196, "commuters_public_transport": "16", "households_total": "1761", "households_no_vehicle": "0", "state": "13", "county": "135", "tract": "050218", "state_abbr": "GA", "EV Level2 EVSE Num": 0.0, "EV DC Fast Count": 0.0, "charger_count": 0.0, "dist_meters": 1417.2273223023956, "dist_to_hwy_miles": 0.88062641971391731, "pop_density": 1286.4756706827814, "is_candidate": true, "chargers_assigned": 1 }, "geometry": { "type": "Point", "coordinates": [ -84.142144108478121, 33.98922064105053 ] } },
{ "type": "Feature", "properties": { "STATEFP": "12", "COUNTYFP": "086", "TRACTCE": "010900", "AFFGEOID": "1400000US12086010900", "GEOID": "12086010900", "NAME": "109", "NAMELSAD": "Census Tract 109", "STUSPS": "FL", "NAMELSADCO": "Miami-Dade County", "STATE_NAME": "Florida", "LSAD": "CT", "ALAND": 2158040, "AWATER": 48032, "population": 6894, "median_income": 35525.0, "commuters_total": 3013, "commuters_public_transport": "82", "households_total": "2152", "households_no_vehicle": "17", "state": "12", "county": "086", "tract": "010900", "state_abbr": "FL", "EV Level2 EVSE Num": 0.0, "EV DC Fast Count": 0.0, "charger_count": 0.0, "dist_meters": 666.56660054364215, "dist_to_hwy_miles": 0.41418631273916151, "pop_density": 3134.7408529015765, "is_candidate": true, "chargers_assigned": 1 }, "geometry": { "type": "Point", "coordinates": [ -80.43963913053642, 25.496955728982396 ] } },
{ "type": "Feature", "properties": { "STATEFP": "12", "COUNTYFP": "095", "TRACTCE": "016738", "AFFGEOID": "1400000US12095016738", "GEOID": "12095016738", "NAME": "167.38", "NAMELSAD": "Census Tract 167.38", "STUSPS": "FL", "NAMELSADCO": "Orange County", "STATE_NAME": "Florida", "LSAD": "CT", "ALAND": 2235576, "AWATER": 97738, "population": 4770, "median_income": 52813.0, "commuters_total": 2558, "commuters_public_transport": "31", "households_total": "1664", "households_no_vehicle": "0", "state": "12", "county": "095", "tract": "016738", "state_abbr": "FL", "EV Level2 EVSE Num": 0.0, "EV DC Fast Count": 0.0, "charger_count": 0.0, "dist_meters": 1198.87998904705, "dist_to_hwy_miles": 0.74495133970885585, "pop_density": 2046.4933703875083, "is_candidate": true, "chargers_assigned": 1 }, "geometry": { "type": "Point", "coordinates": [ -81.281947733907032, 28.555412299172996 ] } },
{ "type": "Feature", "properties": { "STATEFP": "12", "COUNTYFP": "086", "TRACTCE": "009052", "AFFGEOID": "1400000US12086009052", "GEOID": "12086009052", "NAME": "90.52", "NAMELSAD": "Census Tract 90.52", "STUSPS": "FL", "NAMELSADCO": "Miami-Dade County", "STATE_NAME": "Florida", "LSAD": "CT", "ALAND": 676327, "AWATER": 25696, "population": 3708, "median_income": 38048.0, "commuters_total": 1413, "commuters_public_transport": "0", "households_total": "1570", "households_no_vehicle": "73", "state": "12", "county": "086", "tract": "009052", "state_abbr": "FL", "EV Level2 EVSE Num": 0.0, "EV DC Fast Count": 0.0, "charger_count": 0.0, "dist_meters": 404.37484670126742, "dist_to_hwy_miles": 0.2512675051271126, "pop_density": 5273.3535807279841, "is_candidate": true, "chargers_assigned": 1 }, "geometry": { "type": "Point", "coordinates": [ -80.34858144324879, 25.765496461576138 ] } },
{ "type": "Feature", "properties": { "STATEFP": "12", "COUNTYFP": "031", "TRACTCE": "012100", "AFFGEOID": "1400000US12031012100", "GEOID": "12031012100", "NAME": "121", "NAMELSAD": "Census Tract 121", "STUSPS": "FL", "NAMELSADCO": "Duval County", "STATE_NAME": "Florida", "LSAD": "CT", "ALAND": 7401493, "AWATER": 6126, "population": 2010, "median_income": 33954.0, "commuters_total": 799, "commuters_public_transport": "0", "households_total": "707", "households_no_vehicle": "0", "state": "12", "county": "031", "tract": "012100", "state_abbr": "FL", "EV Level2 EVSE Num": 0.0, "EV DC Fast Count": 0.0, "charger_count": 0.0, "dist_meters": 376.9590118540176, "dist_to_hwy_miles": 0.23423205280053788, "pop_density": 270.86746524357204, "is_candidate": true, "chargers_assigned": 1 }, "geometry": { "type": "Point", "coordinates": [ -81.740183488394237, 30.319627918685789 ] } },
{ "type": "Feature", "properties": { "STATEFP": "12", "COUNTYFP": "011", "TRACTCE": "091601", "AFFGEOID": "1400000US12011091601", "GEOID": "12011091601", "NAME": "916.01", "NAMELSAD": "Census Tract 916.01", "STUSPS": "FL", "NAMELSADCO": "Broward County", "STATE_NAME": "Florida", "LSAD": "CT", "ALAND": 1225199, "AWATER": 0, "population": 3565, "median_income": 39253.0, "commuters_total": 1651, "commuters_public_transport": "0", "households_total": "1874", "households_no_vehicle": "134", "state": "12", "county": "011", "tract": "091601", "state_abbr": "FL", "EV Level2 EVSE Num": 0.0, "EV DC Fast Count": 0.0, "charger_count": 0.0, "dist_meters": 1255.374511300834, "dist_to_hwy_miles": 0.78005549560741305, "pop_density": 2844.2528713876991, "is_candidate": true, "chargers_assigned": 1 }, "geometry": { "type": "Point", "coordinates": [ -80.188145851663208, 25.998681560483309 ] } },
{ "type": "Feature", "properties": { "STATEFP": "12", "COUNTYFP": "103", "TRACTCE": "024201", "AFFGEOID": "1400000US12103024201", "GEOID": "12103024201", "NAME": "242.01", "NAMELSAD": "Census Tract 242.01", "STUSPS": "FL", "NAMELSADCO": "Pinellas County", "STATE_NAME": "Florida", "LSAD": "CT", "ALAND": 1425019, "AWATER": 6740, "population": 3050, "median_income": 65735.0, "commuters_total": 1530, "commuters_public_transport": "60", "households_total": "1046", "households_no_vehicle": "73", "state": "12", "county": "103", "tract": "024201", "state_abbr": "FL", "EV Level2 EVSE Num": 0.0, "EV DC Fast Count": 0.0, "charger_count": 0.0, "dist_meters": 496.06825669605263, "dist_to_hwy_miles": 0.30824329022832508, "pop_density": 2137.9954710486618, "is_candidate": true, "chargers_assigned": 1 }, "geometry": { "type": "Point", "coordinates": [ -82.659529316927234, 27.814139266862391 ] } },
{ "type": "Feature", "properties": { "STATEFP": "12", "COUNTYFP": "011", "TRACTCE": "110334", "AFFGEOID": "1400000US12011110334", "GEOID": "12011110334", "NAME": "1103.34", "NAMELSAD": "Census Tract 1103.34", "STUSPS": "FL", "NAMELSADCO": "Broward County", "STATE_NAME": "Florida", "LSAD": "CT", "ALAND": 1640351, "AWATER": 150696, "population": 3641, "median_income": 24056.0, "commuters_total": 848, "commuters_public_transport": "19", "households_total": "2250", "households_no_vehicle": "506", "state": "12", "county": "011", "tract": "110334", "state_abbr": "FL", "EV Level2 EVSE Num": 0.0, "EV DC Fast Count": 0.0, "charger_count": 0.0, "dist_meters": 504.52503324561877, "dist_to_hwy_miles": 0.3134981006161649, "pop_density": 2018.8277714748322, "is_candidate": true, "chargers_assigned": 1 }, "geometry": { "type": "Point", "coordinates": [ -80.333900823482267, 26.000424554236812 ] } },
{ "type": "Feature", "properties": { "STATEFP": "12", "COUNTYFP": "011", "TRACTCE": "050312", "AFFGEOID": "1400000US12011050312", "GEOID": "12011050312", "NAME": "503.12", "NAMELSAD": "Census Tract 503.12", "STUSPS": "FL", "NAMELSADCO": "Broward County", "STATE_NAME": "Florida", "LSAD": "CT", "ALAND": 677911, "AWATER": 0, "population": 2636, "median_income": 29531.0, "commuters_total": 1047, "commuters_public_transport": "86", "households_total": "1245", "households_no_vehicle": "96", "state": "12", "county": "011", "tract": "050312", "state_abbr": "FL", "EV Level2 EVSE Num": 0.0, "EV DC Fast Count": 0.0, "charger_count": 0.0, "dist_meters": 366.46716506715819, "dist_to_hwy_miles": 0.22771270525007656, "pop_density": 3896.0326531382934, "is_candidate": true, "chargers_assigned": 1 }, "geometry": { "type": "Point", "coordinates": [ -80.215972120996284, 26.16093384702457 ] } },
{ "type": "Feature", "properties": { "STATEFP": "12", "COUNTYFP": "011", "TRACTCE": "010401", "AFFGEOID": "1400000US12011010401", "GEOID": "12011010401", "NAME": "104.01", "NAMELSAD": "Census Tract 104.01", "STUSPS": "FL", "NAMELSADCO": "Broward County", "STATE_NAME": "Florida", "LSAD": "CT", "ALAND": 1830871, "AWATER": 39595, "population": 5358, "median_income": 100825.0, "commuters_total": 2739, "commuters_public_transport": "0", "households_total": "1869", "households_no_vehicle": "8", "state": "12", "county": "011", "tract": "010401", "state_abbr": "FL", "EV Level2 EVSE Num": 0.0, "EV DC Fast Count": 0.0, "charger_count": 0.0, "dist_meters": 855.59598050785735, "dist_to_hwy_miles": 0.53164401587474208, "pop_density": 2870.9726220733055, "is_candidate": true, "chargers_assigned": 1 }, "geometry": { "type": "Point", "coordinates": [ -80.161589800367693, 26.322805468540004 ] } },
{ "type": "Feature", "properties": { "STATEFP": "12", "COUNTYFP": "057", "TRACTCE": "004400", "AFFGEOID": "1400000US12057004400", "GEOID": "12057004400", "NAME": "44", "NAMELSAD": "Census Tract 44", "STUSPS": "FL", "NAMELSADCO": "Hillsborough County", "STATE_NAME": "Florida", "LSAD": "CT", "ALAND": 931438, "AWATER": 0, "population": 2113, "median_income": 24073.0, "commuters_total": 1031, "commuters_public_transport": "16", "households_total": "867", "households_no_vehicle": "58", "state": "12", "county": "057", "tract": "004400", "state_abbr": "FL", "EV Level2 EVSE Num": 0.0, "EV DC Fast Count": 0.0, "charger_count": 0.0, "dist_meters": 566.259647664564, "dist_to_hwy_miles": 0.35185830692368553, "pop_density": 2266.4329953206498, "is_candidate": true, "chargers_assigned": 1 }, "geometry": { "type": "Point", "coordinates": [ -82.480791922965338, 27.961503935561254 ] } },
{ "type": "Feature", "properties": { "STATEFP": "12", "COUNTYFP": "095", "TRACTCE": "014605", "AFFGEOID": "1400000US12095014605", "GEOID": "12095014605", "NAME": "146.05", "NAMELSAD": "Census Tract 146.05", "STUSPS": "FL", "NAMELSADCO": "Orange County", "STATE_NAME": "Florida", "LSAD": "CT", "ALAND": 2325961, "AWATER": 151142, "population": 3766, "median_income": 39701.0, "commuters_total": 1539, "commuters_public_transport": "271", "households_total": "1191", "households_no_vehicle": "78", "state": "12", "county": "095", "tract": "014605", "state_abbr": "FL", "EV Level2 EVSE Num": 0.0, "EV DC Fast Count": 0.0, "charger_count": 0.0, "dist_meters": 1266.6152361828158, "dist_to_hwy_miles": 0.78704017558925765, "pop_density": 1529.3567455499938, "is_candidate": true, "chargers_assigned": 1 }, "geometry": { "type": "Point", "coordinates": [ -81.432209934095482, 28.518437910442049 ] } },
{ "type": "Feature", "properties": { "STATEFP": "12", "COUNTYFP": "099", "TRACTCE": "004203", "AFFGEOID": "1400000US12099004203", "GEOID": "12099004203", "NAME": "42.03", "NAMELSAD": "Census Tract 42.03", "STUSPS": "FL", "NAMELSADCO": "Palm Beach County", "STATE_NAME": "Florida", "LSAD": "CT", "ALAND": 1340377, "AWATER": 0, "population": 3370, "median_income": 46643.0, "commuters_total": 1507, "commuters_public_transport": "11", "households_total": "1608", "households_no_vehicle": "98", "state": "12", "county": "099", "tract": "004203", "state_abbr": "FL", "EV Level2 EVSE Num": 0.0, "EV DC Fast Count": 0.0, "charger_count": 0.0, "dist_meters": 1524.2542725991227, "dist_to_hwy_miles": 0.94713004871507744, "pop_density": 2515.7442787243303, "is_candidate": true, "chargers_assigned": 1 }, "geometry": { "type": "Point", "coordinates": [ -80.084219215311165, 26.639550501351778 ] } },
{ "type": "Feature", "properties": { "STATEFP": "12", "COUNTYFP": "086", "TRACTCE": "005104", "AFFGEOID": "1400000US12086005104", "GEOID": "12086005104", "NAME": "51.04", "NAMELSAD": "Census Tract 51.04", "STUSPS": "FL", "NAMELSADCO": "Miami-Dade County", "STATE_NAME": "Florida", "LSAD": "CT", "ALAND": 626661, "AWATER": 51535, "population": 4386, "median_income": 31440.0, "commuters_total": 2344, "commuters_public_transport": "150", "households_total": "1865", "households_no_vehicle": "28", "state": "12", "county": "086", "tract": "005104", "state_abbr": "FL", "EV Level2 EVSE Num": 0.0, "EV DC Fast Count": 0.0, "charger_count": 0.0, "dist_meters": 252.60738937996447, "dist_to_hwy_miles": 0.15696334483699187, "pop_density": 6500.4523949760996, "is_candidate": true, "chargers_assigned": 1 }, "geometry": { "type": "Point", "coordinates": [ -80.235818112744283, 25.786928649703217 ] } },
{ "type": "Feature", "properties": { "STATEFP": "12", "COUNTYFP": "095", "TRACTCE": "016812", "AFFGEOID": "1400000US12095016812", "GEOID": "12095016812", "NAME": "168.12", "NAMELSAD": "Census Tract 168.12", "STUSPS": "FL", "NAMELSADCO": "Orange County", "STATE_NAME": "Florida", "LSAD": "CT", "ALAND": 3008685, "AWATER": 0, "population": 6908, "median_income": 71541.0, "commuters_total": 3420, "commuters_public_transport": "163", "households_total": "1959", "households_no_vehicle": "28", "state": "12", "county": "095", "tract": "016812", "state_abbr": "FL", "EV Level2 EVSE Num": 0.0, "EV DC Fast Count": 0.0, "charger_count": 0.0, "dist_meters": 1019.0240206723098, "dist_to_hwy_miles": 0.63319374443704246, "pop_density": 2297.2197187489141, "is_candidate": true, "chargers_assigned": 1 }, "geometry": { "type": "Point", "coordinates": [ -81.357686950378422, 28.360086589872417 ] } },
{ "type": "Feature", "properties": { "STATEFP": "12", "COUNTYFP": "031", "TRACTCE": "015806", "AFFGEOID": "1400000US12031015806", "GEOID": "12031015806", "NAME": "158.06", "NAMELSAD": "Census Tract 158.06", "STUSPS": "FL", "NAMELSADCO": "Duval County", "STATE_NAME": "Florida", "LSAD": "CT", "ALAND": 1546939, "AWATER": 39543, "population": 2790, "median_income": 63796.0, "commuters_total": 1586, "commuters_public_transport": "26", "households_total": "1408", "households_no_vehicle": "9", "state": "12", "county": "031", "tract": "015806", "state_abbr": "FL", "EV Level2 EVSE Num": 0.0, "EV DC Fast Count": 0.0, "charger_count": 0.0, "dist_meters": 908.3038480963138, "dist_to_hwy_miles": 0.56439524780115691, "pop_density": 1762.7844398845598, "is_candidate": true, "chargers_assigned": 1 }, "geometry": { "type": "Point", "coordinates": [ -81.564773960216812, 30.295364532979644 ] } },
{ "type": "Feature", "properties": { "STATEFP": "12", "COUNTYFP": "086", "TRACTCE": "000505", "AFFGEOID": "1400000US12086000505", "GEOID": "12086000505", "NAME": "5.05", "NAMELSAD": "Census Tract 5.05", "STUSPS": "FL", "NAMELSADCO": "Miami-Dade County", "STATE_NAME": "Florida", "LSAD": "CT", "ALAND": 4814813, "AWATER": 567899, "population": 5179, "median_income": 43426.0, "commuters_total": 2654, "commuters_public_transport": "0", "households_total": "1828", "households_no_vehicle": "51", "state": "12", "county": "086", "tract": "000505", "state_abbr": "FL", "EV Level2 EVSE Num": 0.0, "EV DC Fast Count": 0.0, "charger_count": 0.0, "dist_meters": 60.076440338562577, "dist_to_hwy_miles": 0.037329862141351471, "pop_density": 962.10723869464766, "is_candidate": true, "chargers_assigned": 1 }, "geometry": { "type": "Point", "coordinates": [ -80.276073873131679, 25.889459850618675 ] } },
{ "type": "Feature", "properties": { "STATEFP": "12", "COUNTYFP": "086", "TRACTCE": "008311", "AFFGEOID": "1400000US12086008311", "GEOID": "12086008311", "NAME": "83.11", "NAMELSAD": "Census Tract 83.11", "STUSPS": "FL", "NAMELSADCO": "Miami-Dade County", "STATE_NAME": "Florida", "LSAD": "CT", "ALAND": 1540872, "AWATER": 0, "population": 4567, "median_income": 90417.0, "commuters_total": 2377, "commuters_public_transport": "0", "households_total": "1090", "households_no_vehicle": "31", "state": "12", "county": "086", "tract": "008311", "state_abbr": "FL", "EV Level2 EVSE Num": 0.0, "EV DC Fast Count": 0.0, "charger_count": 0.0, "dist_meters": 992.00990868979295, "dist_to_hwy_miles": 0.61640791174630161, "pop_density": 2966.7242632294315, "is_candidate": true, "chargers_assigned": 1 }, "geometry": { "type": "Point", "coordinates": [ -80.356278101150096, 25.617206921133565 ] } },
{ "type": "Feature", "properties": { "STATEFP": "47", "COUNTYFP": "157", "TRACTCE": "001400", "AFFGEOID": "1400000US47157001400", "GEOID": "47157001400", "NAME": "14", "NAMELSAD": "Census Tract 14", "STUSPS": "TN", "NAMELSADCO": "Shelby County", "STATE_NAME": "Tennessee", "LSAD": "CT", "ALAND": 1226143, "AWATER": 0, "population": 1369, "median_income": 30708.0, "commuters_total": 625, "commuters_public_transport": "22", "households_total": "587", "households_no_vehicle": "0", "state": "47", "county": "157", "tract": "001400", "state_abbr": "TN", "EV Level2 EVSE Num": 0.0, "EV DC Fast Count": 0.0, "charger_count": 0.0, "dist_meters": 955.78784790394604, "dist_to_hwy_miles": 0.5939005107087042, "pop_density": 1118.2902783882919, "is_candidate": true, "chargers_assigned": 1 }, "geometry": { "type": "Point", "coordinates": [ -89.961617978945185, 35.154704486324107 ] } },
{ "type": "Feature", "properties": { "STATEFP": "47", "COUNTYFP": "037", "TRACTCE": "018902", "AFFGEOID": "1400000US47037018902", "GEOID": "47037018902", "NAME": "189.02", "NAMELSAD": "Census Tract 189.02", "STUSPS": "TN", "NAMELSADCO": "Davidson County", "STATE_NAME": "Tennessee", "LSAD": "CT", "ALAND": 2085016, "AWATER": 0, "population": 2538, "median_income": 81705.0, "commuters_total": 1698, "commuters_public_transport": "0", "households_total": "1430", "households_no_vehicle": "0", "state": "47", "county": "037", "tract": "018902", "state_abbr": "TN", "EV Level2 EVSE Num": 0.0, "EV DC Fast Count": 0.0, "charger_count": 0.0, "dist_meters": 1593.7721254037156, "dist_to_hwy_miles": 0.99032654715828583, "pop_density": 1211.4225809325799, "is_candidate": true, "chargers_assigned": 1 }, "geometry": { "type": "Point", "coordinates": [ -86.743431017476354, 36.075311665820095 ] } },
{ "type": "Feature", "properties": { "STATEFP": "47", "COUNTYFP": "037", "TRACTCE": "012600", "AFFGEOID": "1400000US47037012600", "GEOID": "47037012600", "NAME": "126", "NAMELSAD": "Census Tract 126", "STUSPS": "TN", "NAMELSADCO": "Davidson County", "STATE_NAME": "Tennessee", "LSAD": "CT", "ALAND": 1209853, "AWATER": 0, "population": 1939, "median_income": 78750.0, "commuters_total": 1327, "commuters_public_transport": "49", "households_total": "680", "households_no_vehicle": "56", "state": "47", "county": "037", "tract": "012600", "state_abbr": "TN", "EV Level2 EVSE Num": 0.0, "EV DC Fast Count": 0.0, "charger_count": 0.0, "dist_meters": 295.22341686444184, "dist_to_hwy_miles": 0.18344378246016496, "pop_density": 1639.9168942688505, "is_candidate": true, "chargers_assigned": 1 }, "geometry": { "type": "Point", "coordinates": [ -86.771994398868117, 36.187211244941707 ] } },
{ "type": "Feature", "properties": { "STATEFP": "47", "COUNTYFP": "093", "TRACTCE": "006901", "AFFGEOID": "1400000US47093006901", "GEOID": "47093006901", "NAME": "69.01", "NAMELSAD": "Census Tract 69.01", "STUSPS": "TN", "NAMELSADCO": "Knox County", "STATE_NAME": "Tennessee", "LSAD": "CT", "ALAND": 1181567, "AWATER": 0, "population": 4181, "median_income": 23257.0, "commuters_total": 1205, "commuters_public_transport": "0", "households_total": "1426", "households_no_vehicle": "0", "state": "47", "county": "093", "tract": "006901", "state_abbr": "TN", "EV Level2 EVSE Num": 0.0, "EV DC Fast Count": 0.0, "charger_count": 0.0, "dist_meters": 426.76743404007203, "dist_to_hwy_miles": 0.26518164840249547, "pop_density": 3566.4023887316275, "is_candidate": true, "chargers_assigned": 1 }, "geometry": { "type": "Point", "coordinates": [ -83.939976824517842, 35.958386320108644 ] } },
{ "type": "Feature", "properties": { "STATEFP": "39", "COUNTYFP": "153", "TRACTCE": "509000", "AFFGEOID": "1400000US39153509000", "GEOID": "39153509000", "NAME": "5090", "NAMELSAD": "Census Tract 5090", "STUSPS": "OH", "NAMELSADCO": "Summit County", "STATE_NAME": "Ohio", "LSAD": "CT", "ALAND": 633107, "AWATER": 0, "population": 1702, "median_income": 34303.0, "commuters_total": 634, "commuters_public_transport": "47", "households_total": "666", "households_no_vehicle": "0", "state": "39", "county": "153", "tract": "509000", "state_abbr": "OH", "EV Level2 EVSE Num": 0.0, "EV DC Fast Count": 0.0, "charger_count": 0.0, "dist_meters": 806.67308673988066, "dist_to_hwy_miles": 0.50124466348930663, "pop_density": 2653.4568072389661, "is_candidate": true, "chargers_assigned": 1 }, "geometry": { "type": "Point", "coordinates": [ -81.493910700916061, 41.079503190799663 ] } },
{ "type": "Feature", "properties": { "STATEFP": "39", "COUNTYFP": "049", "TRACTCE": "009350", "AFFGEOID": "1400000US39049009350", "GEOID": "39049009350", "NAME": "93.50", "NAMELSAD": "Census Tract 93.50", "STUSPS": "OH", "NAMELSADCO": "Franklin County", "STATE_NAME": "Ohio", "LSAD": "CT", "ALAND": 1765685, "AWATER": 34134, "population": 3257, "median_income": 57402.0, "commuters_total": 1708, "commuters_public_transport": "93", "households_total": "1428", "households_no_vehicle": "0", "state": "39", "county": "049", "tract": "009350", "state_abbr": "OH", "EV Level2 EVSE Num": 0.0, "EV DC Fast Count": 0.0, "charger_count": 0.0, "dist_meters": 1534.6288803507086, "dist_to_hwy_miles": 0.95357654712534867, "pop_density": 1824.3746332575167, "is_candidate": true, "chargers_assigned": 1 }, "geometry": { "type": "Point", "coordinates": [ -82.863362976053196, 39.964307495623302 ] } },
{ "type": "Feature", "properties": { "STATEFP": "39", "COUNTYFP": "035", "TRACTCE": "152202", "AFFGEOID": "1400000US39035152202", "GEOID": "39035152202", "NAME": "1522.02", "NAMELSAD": "Census Tract 1522.02", "STUSPS": "OH", "NAMELSADCO": "Cuyahoga County", "STATE_NAME": "Ohio", "LSAD": "CT", "ALAND": 2208456, "AWATER": 17330, "population": 4393, "median_income": 48940.0, "commuters_total": 2033, "commuters_public_transport": "55", "households_total": "1993", "households_no_vehicle": "36", "state": "39", "county": "035", "tract": "152202", "state_abbr": "OH", "EV Level2 EVSE Num": 0.0, "EV DC Fast Count": 0.0, "charger_count": 0.0, "dist_meters": 1117.3669987557362, "dist_to_hwy_miles": 0.694301389859033, "pop_density": 1979.392592025627, "is_candidate": true, "chargers_assigned": 1 }, "geometry": { "type": "Point", "coordinates": [ -81.515640976834547, 41.607112928497656 ] } },
{ "type": "Feature", "properties": { "STATEFP": "39", "COUNTYFP": "049", "TRACTCE": "006924", "AFFGEOID": "1400000US39049006924", "GEOID": "39049006924", "NAME": "69.24", "NAMELSAD": "Census Tract 69.24", "STUSPS": "OH", "NAMELSADCO": "Franklin County", "STATE_NAME": "Ohio", "LSAD": "CT", "ALAND": 1651083, "AWATER": 0, "population": 3874, "median_income": 57140.0, "commuters_total": 2282, "commuters_public_transport": "9", "households_total": "1720", "households_no_vehicle": "13", "state": "39", "county": "049", "tract": "006924", "state_abbr": "OH", "EV Level2 EVSE Num": 0.0, "EV DC Fast Count": 0.0, "charger_count": 0.0, "dist_meters": 605.21292534057955, "dist_to_hwy_miles": 0.37606281167471112, "pop_density": 2360.4003213996671, "is_candidate": true, "chargers_assigned": 1 }, "geometry": { "type": "Point", "coordinates": [ -82.98557828792697, 40.065744626233318 ] } },
{ "type": "Feature", "properties": { "STATEFP": "39", "COUNTYFP": "095", "TRACTCE": "003901", "AFFGEOID": "1400000US39095003901", "GEOID": "39095003901", "NAME": "39.01", "NAMELSAD": "Census Tract 39.01", "STUSPS": "OH", "NAMELSADCO": "Lucas County", "STATE_NAME": "Ohio", "LSAD": "CT", "ALAND": 1334534, "AWATER": 0, "population": 3014, "median_income": 49050.0, "commuters_total": 1606, "commuters_public_transport": "0", "households_total": "1352", "households_no_vehicle": "75", "state": "39", "county": "095", "tract": "003901", "state_abbr": "OH", "EV Level2 EVSE Num": 0.0, "EV DC Fast Count": 0.0, "charger_count": 0.0, "dist_meters": 1348.7180920496344, "dist_to_hwy_miles": 0.83805665182598732, "pop_density": 2283.0491436041116, "is_candidate": true, "chargers_assigned": 1 }, "geometry": { "type": "Point", "coordinates": [ -83.59065133315076, 41.631168167507667 ] } },
{ "type": "Feature", "properties": { "STATEFP": "39", "COUNTYFP": "061", "TRACTCE": "025200", "AFFGEOID": "1400000US39061025200", "GEOID": "39061025200", "NAME": "252", "NAMELSAD": "Census Tract 252", "STUSPS": "OH", "NAMELSADCO": "Hamilton County", "STATE_NAME": "Ohio", "LSAD": "CT", "ALAND": 1524471, "AWATER": 0, "population": 3895, "median_income": 46130.0, "commuters_total": 2264, "commuters_public_transport": "93", "households_total": "1974", "households_no_vehicle": "81", "state": "39", "county": "061", "tract": "025200", "state_abbr": "OH", "EV Level2 EVSE Num": 0.0, "EV DC Fast Count": 0.0, "charger_count": 0.0, "dist_meters": 835.23410920035326, "dist_to_hwy_miles": 0.51899170417708707, "pop_density": 2549.0330626677523, "is_candidate": true, "chargers_assigned": 1 }, "geometry": { "type": "Point", "coordinates": [ -84.453618471454845, 39.172135763913538 ] } },
{ "type": "Feature", "properties": { "STATEFP": "39", "COUNTYFP": "049", "TRACTCE": "008330", "AFFGEOID": "1400000US39049008330", "GEOID": "39049008330", "NAME": "83.30", "NAMELSAD": "Census Tract 83.30", "STUSPS": "OH", "NAMELSADCO": "Franklin County", "STATE_NAME": "Ohio", "LSAD": "CT", "ALAND": 1576542, "AWATER": 0, "population": 1552, "median_income": 48194.0, "commuters_total": 707, "commuters_public_transport": "0", "households_total": "636", "households_no_vehicle": "0", "state": "39", "county": "049", "tract": "008330", "state_abbr": "OH", "EV Level2 EVSE Num": 0.0, "EV DC Fast Count": 0.0, "charger_count": 0.0, "dist_meters": 1435.3077975413626, "dist_to_hwy_miles": 0.89186113409308332, "pop_density": 985.36880185850407, "is_candidate": true, "chargers_assigned": 1 }, "geometry": { "type": "Point", "coordinates": [ -83.044750297672294, 39.936753779053113 ] } },
{ "type": "Feature", "properties": { "STATEFP": "39", "COUNTYFP": "035", "TRACTCE": "196400", "AFFGEOID": "1400000US39035196400", "GEOID": "39035196400", "NAME": "1964", "NAMELSAD": "Census Tract 1964", "STUSPS": "OH", "NAMELSADCO": "Cuyahoga County", "STATE_NAME": "Ohio", "LSAD": "CT", "ALAND": 1312370, "AWATER": 0, "population": 2782, "median_income": 32850.0, "commuters_total": 1028, "commuters_public_transport": "23", "households_total": "1145", "households_no_vehicle": "55", "state": "39", "county": "035", "tract": "196400", "state_abbr": "OH", "EV Level2 EVSE Num": 0.0, "EV DC Fast Count": 0.0, "charger_count": 0.0, "dist_meters": 208.05495911863943, "dist_to_hwy_miles": 0.12927967932111264, "pop_density": 2135.7362642106423, "is_candidate": true, "chargers_assigned": 1 }, "geometry": { "type": "Point", "coordinates": [ -81.77372759610833, 41.443132525558731 ] } }
]
}
